{"type": "FeatureCollection", "features": [{"type": "Feature", "geometry": {"type": "Polygon", "coordinates": [[[80.15000429930903, 6.082271114946735], [80.15025262099428, 6.082474693985987], [80.15093718347792, 6.08246127119219], [80.15120340222155, 6.081973576350905], [80.15144277537759, 6.080743153586197], [80.15183651066229, 6.080716307998603], [80.15189020183749, 6.082022793261494], [80.15274926064048, 6.082031741790693], [80.15369780473546, 6.0809400212285505], [80.15371570179384, 6.07898924186341], [80.15718773112262, 6.078837116867047], [80.1589505913746, 6.079776712432825], [80.15930853254252, 6.080528388885447], [80.16085662809377, 6.080224138892719], [80.16126826043687, 6.079221903622556], [80.16260159128736, 6.0787744771626615], [80.16271792216692, 6.078022800710039], [80.16343380450276, 6.077736447775707], [80.16446288536049, 6.077432197782978], [80.16396176772541, 6.076233094870462], [80.16308481186404, 6.075884102231743], [80.16294163539688, 6.074863969903184], [80.1644807824189, 6.074577616968852], [80.16538458386789, 6.073736455224252], [80.16976936317485, 6.070711852355365], [80.1712995616677, 6.071347197928415], [80.1712816646093, 6.07365591846147], [80.17285660574812, 6.074568668439654], [80.17268658369336, 6.075740925764578], [80.17019889257638, 6.077038462498271], [80.16904453230985, 6.078380741877954], [80.16946511318214, 6.0809221241701525], [80.17008256169679, 6.081602212389192], [80.17105795137937, 6.080438903593467], [80.17146958372247, 6.078998190392608], [80.17291029692332, 6.078327050702766], [80.17361723072996, 6.077539580133352], [80.17489687040525, 6.077781190421695], [80.17401991454386, 6.079517205086084], [80.17267763516418, 6.080367315359884], [80.17152327489767, 6.082443374133793], [80.17193490724077, 6.083714065279893], [80.1733577233832, 6.085476925531877], [80.17494161305123, 6.086085425517332], [80.17685659829958, 6.086380726980863], [80.1780020100369, 6.08491316819241], [80.17710715711712, 6.083266638819999], [80.17585436302942, 6.082550756484168], [80.17728612770107, 6.082085432965878], [80.17839574532161, 6.082658138834542], [80.1801138629276, 6.082407580017001], [80.17939798059177, 6.081118991812506], [80.17889686295669, 6.0792576977393455], [80.17954115705894, 6.077217433082228], [80.17796621592011, 6.075606697826609], [80.17900424530707, 6.074497080206071], [80.17853892178877, 6.072492609665744], [80.17793042180332, 6.071168227344457], [80.17764406886899, 6.06959328620563], [80.1776082747522, 6.067839374482845], [80.1771787453507, 6.066407609811183], [80.1776082747522, 6.065262198073854], [80.17936218647499, 6.065691727475352], [80.17989909822685, 6.066658168628724], [80.18090133349702, 6.067588815665304], [80.18168880406644, 6.066872933329473], [80.18190356876718, 6.065262198073854], [80.18104450996418, 6.06400940398615], [80.1809729217306, 6.062971374599194], [80.1814024511321, 6.062112315796198], [80.18290580403735, 6.061969139329031], [80.18419439224185, 6.0613964334603665], [80.18315636285489, 6.0603226099566205], [80.18254786286943, 6.059284580569666], [80.18236889228548, 6.058532904117044], [80.18165300994964, 6.0572443159125475], [80.18079395114665, 6.056886374744631], [80.17972012764291, 6.056385257109549], [80.17861051002237, 6.056206286525592], [80.17929059824141, 6.054344992452432], [80.18097292173061, 6.052805845430395], [80.18283421580378, 6.052483698379271], [80.18326374520527, 6.053843874817351], [80.18412280400827, 6.0552398453722205], [80.18533980397918, 6.0552398453722205], [80.18594830396464, 6.054380786569223], [80.18516083339523, 6.052698463080021], [80.18390803930752, 6.051195110174776], [80.18455233340977, 6.050479227838945], [80.1861272745486, 6.050264463138196], [80.18773800980422, 6.049727551386323], [80.18895500977513, 6.048617933765785], [80.19035098033, 6.0482599925978695], [80.19156798030092, 6.048832698466534], [80.19135321560016, 6.049978110203863], [80.19095948031546, 6.050980345474027], [80.19178274500166, 6.051445668992317], [80.19282077438861, 6.05105193370761], [80.19382300965877, 6.049476992568782], [80.19418095082669, 6.0482599925978695], [80.19389459789237, 6.047257757327706], [80.1920333038192, 6.046112345590377], [80.19189012735204, 6.045289080904172], [80.19292815673899, 6.044215257400425], [80.19396618612595, 6.043714139765344], [80.19493262727931, 6.043606757414969], [80.19475365669535, 6.045110110320214], [80.19589906843268, 6.046040757356794], [80.19704448017002, 6.045038522086631], [80.19747400957151, 6.044036286816468], [80.19815409779055, 6.044537404451549], [80.19700868605321, 6.046398698524709], [80.19546953903118, 6.0487611102329515], [80.19561271549834, 6.049942316087072], [80.19532636256402, 6.050729786656486], [80.19486103904572, 6.052197345444939], [80.19507580374648, 6.053199580715103], [80.1958274801991, 6.0534143454158515], [80.19643598018455, 6.053092198364728], [80.19740242133793, 6.052304727795314], [80.19815409779055, 6.050479227838945], [80.1983688624913, 6.048403169065036], [80.198762597776, 6.046864022043], [80.1995858624622, 6.046398698524709], [80.19990800951332, 6.046864022043], [80.20026595068124, 6.047472522028456], [80.20116080360103, 6.047651492612413], [80.20184089182007, 6.04664925734225], [80.20205565652083, 6.045360669137755], [80.20255677415591, 6.044430022101174], [80.20323686237494, 6.043964698582885], [80.20391695059398, 6.0431056397798875], [80.20463283292982, 6.041888639808975], [80.20398853882756, 6.040993786889186], [80.20370218589323, 6.04013472808619], [80.2042748917619, 6.039740992801482], [80.20495497998094, 6.039991551619023], [80.20481180351376, 6.0407074339548545], [80.20531292114885, 6.041029581005978], [80.20602880348468, 6.041101169239561], [80.2067804799373, 6.040671639838062], [80.20785430344104, 6.03991996338544], [80.20817645049216, 6.038559786947362], [80.2076395387403, 6.0376291399107815], [80.20907130341196, 6.037199610509283], [80.20946503869666, 6.038273434013029], [80.21021671514929, 6.0387029634145275], [80.21146950923699, 6.038881933998486], [80.21250753862394, 6.039848375151857], [80.21240015627357, 6.041172757473144], [80.21164847982095, 6.0426045221448055], [80.21121895041945, 6.044465816217966], [80.20989456809816, 6.047150374977333], [80.20921447987912, 6.048653727882578], [80.20874915636082, 6.049942316087074], [80.21039568573325, 6.050371845488572], [80.21146950923699, 6.048832698466535], [80.21211380333924, 6.04707878674375], [80.2126865092079, 6.04614813970717], [80.21386771506202, 6.044680580918716], [80.21454780328106, 6.043105639779888], [80.21497733268255, 6.041924433925768], [80.21522789150009, 6.040850610422021], [80.21418986211314, 6.0387029634145275], [80.21279389155828, 6.03873875753132], [80.21175586217132, 6.0381302575458635], [80.21146950923699, 6.037342786976449], [80.21082521513473, 6.036698492874201], [80.21103997983549, 6.035374110552914], [80.21200642098886, 6.034407669399543], [80.21293706802544, 6.034300287049168], [80.21318762684298, 6.035517287020079], [80.21422565622994, 6.0369490516917415], [80.2139750974124, 6.038237639896237], [80.21379612682844, 6.038631375180944], [80.21422565622994, 6.039812581035065], [80.21512050914973, 6.040743228071645], [80.21572900913517, 6.039490433983941], [80.21601536206951, 6.037772316377946], [80.21658806793818, 6.0364479340566595], [80.2173397443908, 6.035481492903288], [80.21791245025946, 6.035159345852164], [80.21880730317925, 6.035195139968955], [80.21905786199679, 6.033691787063711], [80.21887889141284, 6.032582169443173], [80.2185567443617, 6.031687316523384], [80.21805562672662, 6.030613493019638], [80.21726815615722, 6.029754434216641], [80.21658806793818, 6.03064928713643], [80.21605115618631, 6.030828257720388], [80.21504892091615, 6.031078816537928], [80.21444042093069, 6.031007228304345], [80.21415406799635, 6.030506110669264], [80.21347397977732, 6.029933404800599], [80.21379612682844, 6.028716404829686], [80.21356793933388, 6.028358463661773], [80.21380507535763, 6.028018419552253], [80.21387218932662, 6.027535198975567], [80.2138945606496, 6.026908801931715], [80.21427487314052, 6.0267924710521426], [80.21461491725005, 6.026510592382409], [80.21457912313325, 6.026188445331285], [80.21495943562415, 6.026233187977274], [80.21595272236512, 6.025114621827539], [80.21582744295635, 6.024993816683367], [80.21614511574288, 6.024819320364009], [80.21630618926844, 6.024949074037378], [80.21752318923936, 6.023803662300049], [80.21746054953496, 6.023642588774487], [80.2177066340879, 6.023870776269033], [80.21916524434717, 6.024403213756307], [80.21955003110267, 6.024362945374917], [80.21967531051146, 6.026049743128718], [80.21989902374142, 6.0262466107710715], [80.21980058992024, 6.026711934289362], [80.2199079722706, 6.027302537216422], [80.21970215609906, 6.027982625435461], [80.21944264875233, 6.029271213639958], [80.21906681052603, 6.029360698931937], [80.21908470758443, 6.028779044534073], [80.21877150906249, 6.028510588658137], [80.21814511201865, 6.028546382774929], [80.21753661203319, 6.029181728347979], [80.21724131056966, 6.029799176862633], [80.2179035017303, 6.03044347096488], [80.21826144289822, 6.029593360691082], [80.21892363405887, 6.029405441577926], [80.21920103846399, 6.029539669515894], [80.21970215609907, 6.029145934231187], [80.22034645020133, 6.0274009710376], [80.2204538325517, 6.025181735796524], [80.21996166344582, 6.02439426522711], [80.21931736934357, 6.023839456416841], [80.21793929584709, 6.023526257894915], [80.21654332529222, 6.023982632884008], [80.21475361945265, 6.025611265198022], [80.2131786783138, 6.026702985760163], [80.21280284008748, 6.029333853344341], [80.21267756067871, 6.030550853315254], [80.2102077666201, 6.033289103249807], [80.20786325197024, 6.035830485542006], [80.20544714908681, 6.036707441403399], [80.20328160502092, 6.038121309016665], [80.20079391390391, 6.039123544286828], [80.19945163452422, 6.038228691367039], [80.19764403162625, 6.038532941359768], [80.1965881051809, 6.040072088381804], [80.19438676699824, 6.040895353068009], [80.19091473766946, 6.043275661834647], [80.18887447301233, 6.04508326473262], [80.18556351720912, 6.047123529389738], [80.1831116202089, 6.04774992643359], [80.18005122322322, 6.050362896959373], [80.17811834091648, 6.053512779237028], [80.17614966449294, 6.055982573295645], [80.17555906156588, 6.05922194086528], [80.17069106168222, 6.064125734865721], [80.1653040471051, 6.068063087712791], [80.15957698841845, 6.071016102348095], [80.15458370912604, 6.074434440501687], [80.15229288565139, 6.07695792573549], [80.15009154746869, 6.078300205115175], [80.14985888570955, 6.081485881509622], [80.15000429930903, 6.082271114946735]]]}, "properties": {"district": "galle", "depth_threshold_m": 0.5}}, {"type": "Feature", "geometry": {"type": "Polygon", "coordinates": [[[80.21819880319374, 6.035499389961686], [80.21809142084338, 6.036949051691743], [80.21862833259524, 6.036949051691743], [80.21900417082156, 6.035749948779227], [80.21954108257343, 6.0373069928596585], [80.21945159728145, 6.040098933969398], [80.21959477374863, 6.0422823750936825], [80.21988112668295, 6.043839419174114], [80.21997061197493, 6.045450154429734], [80.22034645020123, 6.04661346322546], [80.22142027370498, 6.047472522028456], [80.2222435383912, 6.047060889685353], [80.2230668030774, 6.046166036765565], [80.22329946483654, 6.04546805148813], [80.22383637658841, 6.0459333750064195], [80.2251786559681, 6.045969169123212], [80.22596612653751, 6.045557536780109], [80.22720102356682, 6.045539639721713], [80.22806008236982, 6.045450154429734], [80.23060146466202, 6.045074316203423], [80.23350078812213, 6.043588860356574], [80.23434194986673, 6.042819286845556], [80.23512942043615, 6.042192889801704], [80.23675805275016, 6.041978125100955], [80.23691912627572, 6.043087742721492], [80.23636431746546, 6.043893110349302], [80.23731286156044, 6.043749933882136], [80.23826140565541, 6.043356198597429], [80.23856565564815, 6.041584389816248], [80.23801084683787, 6.04000944867742], [80.23903097916643, 6.038685066356132], [80.24112493499874, 6.038774551648111], [80.24284305260473, 6.038899831056882], [80.24454327315232, 6.037718625202761], [80.2459034495904, 6.036358448764682], [80.24475803785307, 6.035087757618582], [80.24357683199895, 6.035499389961685], [80.24282515554633, 6.036555316407036], [80.24137549381628, 6.03644793405666], [80.24021218502055, 6.036913257574951], [80.23946050856793, 6.036233169355912], [80.23937102327595, 6.035016169384999], [80.24055222913006, 6.034300287049168], [80.24191240556814, 6.033298051779005], [80.24287884672151, 6.033834963530878], [80.24363052317415, 6.0349624782098115], [80.24420322904281, 6.035284625260935], [80.24592134664881, 6.036412139939869], [80.24633297899192, 6.034908787034625], [80.24828375835705, 6.035284625260935], [80.24969762597031, 6.034676125275479], [80.25134415534272, 6.03378127235569], [80.25247167002166, 6.031848390048947], [80.25340231705823, 6.030953537129158], [80.25206003767856, 6.029181728347977], [80.25238218472968, 6.027875243085086], [80.25410030233567, 6.028770096004875], [80.25492356702188, 6.028251081311398], [80.25506674348904, 6.02633609606305], [80.25633743463516, 6.025136993150533], [80.25733966990532, 6.023919993179621], [80.25759022872286, 6.022452434391167], [80.25637322875194, 6.021736552055336], [80.25522781701461, 6.021879728522503], [80.2535633905838, 6.023114625551811], [80.25277592001439, 6.023902096121224], [80.25161261121866, 6.023365184369352], [80.25111149358358, 6.02239874321598], [80.24858800834977, 6.0227387873255], [80.24644036134228, 6.024492699048286], [80.24547392018891, 6.025852875486365], [80.24207347909372, 6.026604551938988], [80.24028377325413, 6.024385316697912], [80.23942471445115, 6.0230967284934165], [80.23956789091831, 6.026783522522945], [80.24146497910826, 6.02807211072744], [80.23942471445115, 6.030792463603597], [80.23724127332686, 6.032510581209592], [80.23541577337049, 6.032367404742425], [80.23641800864065, 6.030935640070764], [80.23477147926825, 6.02968284598306], [80.23140683228984, 6.029826022450226], [80.2285433029465, 6.030004993034184], [80.22610930300469, 6.032510581209592], [80.22961712645026, 6.032832728260716], [80.23129944993946, 6.033262257662214], [80.228972832348, 6.034694022333876], [80.22754106767636, 6.034371875282752], [80.22582295007035, 6.036089992888746], [80.22539342066887, 6.035839434071206], [80.22174242075613, 6.034765610567459], [80.21923683258072, 6.03362019883013], [80.21791245025943, 6.035159345852167], [80.21819880319374, 6.035499389961686]]]}, "properties": {"district": "galle", "depth_threshold_m": 0.5}}, {"type": "Feature", "geometry": {"type": "Polygon", "coordinates": [[[80.24028377325412, 6.019409934463888], [80.23835089094739, 6.017656022741103], [80.23674015569176, 6.016403228653399], [80.23663277334138, 6.012895405207828], [80.23552315572086, 6.0132175522589515], [80.23523680278652, 6.016224258069441], [80.23419877339957, 6.017799199208269], [80.23477147926823, 6.019660493281429], [80.2365969792246, 6.018658258011266], [80.2382793027138, 6.019159375646347], [80.23960368503509, 6.020090022682927], [80.24028377325412, 6.020054228566136], [80.24028377325412, 6.019409934463888]]]}, "properties": {"district": "galle", "depth_threshold_m": 0.5}}, {"type": "Feature", "geometry": {"type": "Polygon", "coordinates": [[[80.23971106738546, 6.007633670039468], [80.23863724388171, 6.010103464098087], [80.24228824379445, 6.010282434682045], [80.24536653783852, 6.010604581733169], [80.24805109659789, 6.011535228769749], [80.24797950836431, 6.016009493368691], [80.24719203779489, 6.018944610945598], [80.24647615545906, 6.020519552084426], [80.2467267142766, 6.021736552055338], [80.24808689071469, 6.019875257982179], [80.24976921420388, 6.018944610945598], [80.250950420058, 6.019123581529556], [80.2493396848024, 6.016975934522063], [80.24916071421843, 6.013861846361199], [80.2501271553718, 6.01110569936825], [80.25367077293417, 6.008027405324177], [80.25610477287599, 6.005664993615936], [80.25750074343085, 6.006524052418933], [80.25782289048199, 6.007490493572305], [80.25868194928498, 6.00437640541144], [80.26158127274509, 6.001727640768866], [80.26204659626339, 6.003553140725234], [80.2632635962343, 6.003195199557319], [80.26423003738766, 6.001262317250576], [80.26612712557763, 6.002729876039029], [80.26662824321271, 6.004877523046522], [80.26508909619066, 6.006989375937223], [80.26684300791345, 6.00645246418535], [80.26913383138812, 6.006846199470057], [80.27038662547581, 6.007383111221929], [80.27242689013293, 6.0073115229883465], [80.27564836064418, 6.008600111192842], [80.278082360586, 6.008492728842467], [80.27922777232334, 6.006130317134225], [80.27869086057146, 6.004197434827482], [80.27954991937446, 6.00323099367411], [80.28076691934537, 6.004125846593899], [80.28187653696591, 6.003087817206945], [80.28262821341853, 6.0054860230319775], [80.28123224286365, 6.008528522959259], [80.27944253702408, 6.0107119640835425], [80.28198391931627, 6.012609052273493], [80.2848116545428, 6.012072140521621], [80.28635080156485, 6.010282434682043], [80.28617183098089, 6.007955817090593], [80.28857003680592, 6.00928019941188], [80.29021656617833, 6.009996081747711], [80.29157674261641, 6.008027405324176], [80.28975124266005, 6.0063092877181825], [80.28996600736079, 6.004447993645022], [80.29139777203245, 6.003409964258068], [80.2929369190545, 6.0021571701703635], [80.29383177197428, 6.0004032584475775], [80.29171991908358, 6.0005822290315365], [80.29225683083546, 5.998828317308751], [80.29429709549257, 6.000045317279663], [80.29494138959481, 6.000975964316243], [80.29655212485044, 6.000116905513247], [80.2950129778284, 5.997969258505754], [80.2954425072299, 5.997432346753881], [80.29708903660232, 5.999579993761373], [80.2984134189236, 5.999114670243084], [80.29877136009151, 5.997217582053132], [80.2996662130113, 5.998899905542334], [80.30077583063184, 5.998541964374419], [80.30099059533259, 5.997289170286715], [80.30149171296767, 5.99671646441805], [80.3026013305882, 5.996537493834092], [80.30310244822329, 5.998398787907252], [80.30428365407741, 5.999365229060624], [80.30460580112853, 6.002157170170364], [80.30403309525987, 6.003982670126733], [80.30421206584383, 6.00577237596631], [80.30514271288041, 6.0062376994846005], [80.30678924225282, 6.003839493659567], [80.30764830105582, 6.0008327878490775], [80.30872212455957, 5.999401023177415], [80.30915165396107, 5.997790287921796], [80.3106192127495, 5.997682905571422], [80.31212256565473, 5.9995084055277905], [80.31405544796148, 6.001226523133784], [80.31466394794694, 6.002658287805446], [80.31505768323164, 6.004125846593899], [80.31806438904214, 6.00323099367411], [80.31910241842908, 6.001906611352823], [80.31827915374288, 6.001047552549827], [80.3148429185309, 6.000546434914745], [80.31337535974244, 5.999150464359875], [80.31180041860361, 5.99786187615538], [80.31079818333345, 5.996537493834093], [80.31251630093945, 5.9971817879363405], [80.31380488914394, 5.9980050526225455], [80.31452077147978, 5.999114670243084], [80.31623888908577, 6.00018849374683], [80.31752747729026, 6.000546434914745], [80.31928138901304, 5.99997372904608], [80.32046259486717, 5.999794758462123], [80.32153641837091, 5.998327199673669], [80.31806438904214, 5.998184023206504], [80.31641785966973, 5.997038611469174], [80.31852971256042, 5.99671646441805], [80.31870868314438, 5.995248905629597], [80.32099950661905, 5.995928993848636], [80.32178697718845, 5.994568817410557], [80.322037536006, 5.993745552724352], [80.32343350656086, 5.993817140957935], [80.32504424181649, 5.99324443508927], [80.32615385943703, 5.994747787994515], [80.32737085940794, 5.995427876213554], [80.32851627114526, 5.994568817410557], [80.32690553588965, 5.99324443508927], [80.32830150644452, 5.992814905687772], [80.33062812403597, 5.9912757586657355], [80.33248941810912, 5.989915582227657], [80.33388538866399, 5.990022964578031], [80.33531715333565, 5.989307082242201], [80.33556771215319, 5.988161670504871], [80.33499500628453, 5.985978229380588], [80.33624780037223, 5.985262347044756], [80.33664153565694, 5.984689641176092], [80.33742900622636, 5.9863003764317115], [80.33750059445994, 5.987803729336956], [80.33624780037223, 5.988949141074285], [80.33667732977374, 5.990488288096322], [80.33742900622636, 5.990022964578031], [80.33839544737972, 5.988340641088829], [80.33907553559877, 5.986837288183584], [80.33921871206593, 5.985226552927965], [80.33993459440177, 5.985298141161548], [80.34057888850401, 5.985691876446255], [80.34176009435814, 5.985477111745506], [80.34337082961375, 5.984081141190635], [80.34498156486937, 5.9842959058913845], [80.3453037119205, 5.9853697293951305], [80.34487418251899, 5.9868730823003755], [80.34473100605183, 5.988734376373536], [80.34634174130744, 5.98884175872391], [80.34773771186232, 5.9863719646652935], [80.34848938831495, 5.984474876475342], [80.35010012357056, 5.983866376489885], [80.35178244705976, 5.986228788198128], [80.3528562705635, 5.986014023497378], [80.35421644700159, 5.984832817643257], [80.3554334469725, 5.984367494124967], [80.35385850583367, 5.986014023497378], [80.35382271171687, 5.986550935249252], [80.35511129992138, 5.9866225234828345], [80.3566862410602, 5.985548699979089], [80.35740212339603, 5.985190758811173], [80.35571979990684, 5.983401052971596], [80.35518288815496, 5.981360788314478], [80.35697259399454, 5.980215376577148], [80.35786744691433, 5.9798932295260245], [80.35937079981956, 5.981611347132018], [80.35951397628672, 5.983114700037263], [80.36112471154235, 5.98372320002272], [80.36359450560096, 5.982899935336514], [80.36287862326513, 5.9809670530297705], [80.36137527035989, 5.979499494241318], [80.36094574095839, 5.978282494270405], [80.35872650571731, 5.976385406080453], [80.36180479976139, 5.975061023759166], [80.36298600561551, 5.975025229642375], [80.36499047615584, 5.975776906094996], [80.36667279964503, 5.975132611992748], [80.36803297608311, 5.973020759102048], [80.36960791722194, 5.971374229729637], [80.37075332895927, 5.970336200342682], [80.3714692112951, 5.96958452389006], [80.37286518184997, 5.969870876824392], [80.3740105935873, 5.97051517092664], [80.375263387675, 5.97004984740835], [80.37597927001083, 5.968725465087062], [80.37655197587951, 5.968152759218398], [80.37590768177725, 5.969906670941183], [80.37537077002538, 5.970801523860972], [80.37619403471159, 5.972125906182259], [80.37705309351459, 5.97144581796322], [80.3782342993687, 5.9700856415251415], [80.37927232875566, 5.969620318006851], [80.37941550522282, 5.971767965014344], [80.38041774049299, 5.971767965014344], [80.38116941694561, 5.97123105326247], [80.38181371104785, 5.969548729773268], [80.38278015220124, 5.969441347422894], [80.38349603453706, 5.971732170897553], [80.38353182865386, 5.972841788518091], [80.38310229925236, 5.97398720025542], [80.38442668157364, 5.9758127002117885], [80.3837823874714, 5.977244464883451], [80.38295912278518, 5.978282494270405], [80.38356762277064, 5.980179582460357], [80.38618059329643, 5.981539758898435], [80.38743338738414, 5.9801437883435655], [80.38886515205579, 5.979177347190194], [80.38993897555953, 5.97652858254762], [80.39104859318007, 5.975275788459916], [80.39158550493195, 5.973128141452423], [80.39040429907783, 5.97234067088301], [80.38976000497559, 5.971016288561722], [80.38918729910692, 5.970371994459474], [80.38993897555953, 5.968832847437438], [80.39101279906329, 5.967615847466526], [80.39190765198308, 5.967150523948235], [80.39455641662565, 5.967472670999359], [80.39366156370586, 5.968116965101607], [80.39294568137002, 5.969512935656478], [80.39384053428982, 5.970515170926641], [80.39523650484469, 5.9705867591602235], [80.39706200480106, 5.969369759189311], [80.39881591652384, 5.971374229729637], [80.40056982824663, 5.971946935598302], [80.4024311223198, 5.972090112065469], [80.40397026934183, 5.969656112123643], [80.4032185928892, 5.967902200400858], [80.40303962230524, 5.96725790629861], [80.40182262233434, 5.967329494532193], [80.40110673999851, 5.967866406284067], [80.3990306812246, 5.967794818050483], [80.39885171064064, 5.967186318065027], [80.39892329887422, 5.965146053407909], [80.39878012240706, 5.963427935801915], [80.39917385769176, 5.9623541122981685], [80.40053403412983, 5.963284759334749], [80.40089197529775, 5.9643585828384955], [80.40021188707871, 5.966148288678072], [80.40085618118097, 5.967293700415402], [80.40178682821754, 5.967615847466526], [80.4036481222907, 5.9677590239336915], [80.4049367104952, 5.967615847466526], [80.40554521048065, 5.966040906327698], [80.403254387006, 5.964752318123202], [80.403254387006, 5.963642700502664], [80.40386288699145, 5.962246729947794], [80.40414923992579, 5.960850759392924], [80.40504409284557, 5.9602064652906765], [80.40608212223253, 5.9595263770716365], [80.4079076221889, 5.958882082969389], [80.41177338680238, 5.959096847670138], [80.41159441621843, 5.957271347713769], [80.41073535741543, 5.956555465377939], [80.40865929864152, 5.957844053582434], [80.40769285748816, 5.957808259465643], [80.40672641633478, 5.957271347713769], [80.40482932814483, 5.958345171217515], [80.40225215173584, 5.9592758182540955], [80.40042665177947, 5.95984852412276], [80.39849376947272, 5.960242259407467], [80.3926951225525, 5.962533082882127], [80.38829244618714, 5.964179612254537], [80.3867532991651, 5.96353531815229], [80.3834244463035, 5.964895494590368], [80.38138418164637, 5.9651818475247005], [80.37912915228851, 5.964573347539244], [80.37730365233215, 5.964823906356785], [80.37476227003994, 5.966398847495612], [80.37103968189362, 5.966971553364277], [80.36799718196633, 5.9685822886198965], [80.36534841732376, 5.970336200342682], [80.36280703503157, 5.971052082678512], [80.36080256449124, 5.970801523860971], [80.3571515645785, 5.973235523802796], [80.35414485876801, 5.974273553189751], [80.35063703532244, 5.9761348472629106], [80.34548268250445, 5.977852964868906], [80.33567509450357, 5.980752288329021], [80.33127241813821, 5.9827925529861385], [80.32486527123253, 5.9864435528988755], [80.32146483013733, 5.988197464621661], [80.31727691847273, 5.989915582227655], [80.3126594774066, 5.991597905716858], [80.30893688926028, 5.99163369983365], [80.30618074226733, 5.991275758665734], [80.30084741886539, 5.991454729249692], [80.29358121315671, 5.992063229235148], [80.29057450734622, 5.993137052738894], [80.28796153682045, 5.993387611556435], [80.28395259573979, 5.994783582111305], [80.2818049487323, 5.995320493863178], [80.27396603715496, 5.996644876184464], [80.26981391960715, 5.997038611469171], [80.26630609616157, 5.997969258505751], [80.26265509624884, 5.999257846710246], [80.259362037504, 6.0007969937322825], [80.25571103759127, 6.002658287805443], [80.25320544941586, 6.005056493630477], [80.24959024361993, 6.0087074935432145], [80.2467267142766, 6.008779081776797], [80.24482962608666, 6.007991611207383], [80.24493700843703, 6.0056291994991415], [80.2437915966997, 6.004984905396894], [80.24182292027616, 6.005915552433474], [80.23971106738546, 6.007633670039468]]]}, "properties": {"district": "galle", "depth_threshold_m": 0.5}}]}