{"type": "FeatureCollection", "features": [{"type": "Feature", "geometry": {"type": "Point", "coordinates": [80.000478, 6.423254]}, "properties": {"id": "dmc-000", "name": "UDAKOTUWA RAJAMAHA VIHARAYA", "type": "religious", "source": "dmc", "confidence": "verified", "district": "galle"}}, {"type": "Feature", "geometry": {"type": "Point", "coordinates": [80.007052, 6.419305]}, "properties": {"id": "dmc-001", "name": "GANEPURA PURANA VIHARAYA", "type": "religious", "source": "dmc", "confidence": "verified", "district": "galle"}}, {"type": "Feature", "geometry": {"type": "Point", "coordinates": [80.015712, 6.416531]}, "properties": {"id": "dmc-002", "name": "DARMAPALA VIDDIYALAYA", "type": "school", "source": "dmc", "confidence": "verified", "district": "galle"}}, {"type": "Feature", "geometry": {"type": "Point", "coordinates": [80.02057, 6.365442]}, "properties": {"id": "dmc-003", "name": "MEDAGODA SRI DARMARAMA VIHARAYA", "type": "religious", "source": "dmc", "confidence": "verified", "district": "galle"}}, {"type": "Feature", "geometry": {"type": "Point", "coordinates": [80.012968, 6.373094]}, "properties": {"id": "dmc-004", "name": "YALEGAMA SRI SUNANDARAMA VIHARAYA", "type": "religious", "source": "dmc", "confidence": "verified", "district": "galle"}}, {"type": "Feature", "geometry": {"type": "Point", "coordinates": [80.014967, 6.389381]}, "properties": {"id": "dmc-005", "name": "KATUKOLIHA SHADDHARMA VIHARAYA", "type": "religious", "source": "dmc", "confidence": "verified", "district": "galle"}}, {"type": "Feature", "geometry": {"type": "Point", "coordinates": [80.007052, 6.419305]}, "properties": {"id": "dmc-006", "name": "SRI SUNANDARAMA VIHARAYA", "type": "religious", "source": "dmc", "confidence": "verified", "district": "galle"}}, {"type": "Feature", "geometry": {"type": "Point", "coordinates": [80.026002, 6.361859]}, "properties": {"id": "dmc-007", "name": "MALMALA KANDA NILGALTHULA PURANA VIHARAYA", "type": "religious", "source": "dmc", "confidence": "verified", "district": "galle"}}, {"type": "Feature", "geometry": {"type": "Point", "coordinates": [80.020576, 6.365442]}, "properties": {"id": "dmc-008", "name": "KHEKKAWATTE SUWDDHANARAMA VIHARAYA", "type": "religious", "source": "dmc", "confidence": "verified", "district": "galle"}}, {"type": "Feature", "geometry": {"type": "Point", "coordinates": [80.025408, 6.347782]}, "properties": {"id": "dmc-009", "name": "DUWEMODARA SRI NIKETHANARAMAYA", "type": "religious", "source": "dmc", "confidence": "verified", "district": "galle"}}, {"type": "Feature", "geometry": {"type": "Point", "coordinates": [80.032347, 6.336651]}, "properties": {"id": "dmc-010", "name": "NAPR GANEGODELLA PURANA RAJAMAHA VIHARAYA", "type": "religious", "source": "dmc", "confidence": "verified", "district": "galle"}}, {"type": "Feature", "geometry": {"type": "Point", "coordinates": [80.036347, 6.329789]}, "properties": {"id": "dmc-011", "name": "HEGALLA AMARAMUNI VIHARAYA", "type": "religious", "source": "dmc", "confidence": "verified", "district": "galle"}}, {"type": "Feature", "geometry": {"type": "Point", "coordinates": [80.036938, 6.324255]}, "properties": {"id": "dmc-012", "name": "KOSGODA SRI NIVESARAMA VIHARAYA", "type": "religious", "source": "dmc", "confidence": "verified", "district": "galle"}}, {"type": "Feature", "geometry": {"type": "Point", "coordinates": [80.033214, 6.32217]}, "properties": {"id": "dmc-013", "name": "GALKHANDA SRI VIDYARAMA VIHARAYARAMA VIHARAYA", "type": "religious", "source": "dmc", "confidence": "verified", "district": "galle"}}, {"type": "Feature", "geometry": {"type": "Point", "coordinates": [80.0377, 6.314054]}, "properties": {"id": "dmc-014", "name": "AHUNGALA LA MIDDARAMULLA ABHINAWARAMA PURANA VIHARAYA", "type": "religious", "source": "dmc", "confidence": "verified", "district": "galle"}}, {"type": "Feature", "geometry": {"type": "Point", "coordinates": [80.044309, 6.300948]}, "properties": {"id": "dmc-015", "name": "SUGATHIA SHASANODARAMAYA", "type": "religious", "source": "dmc", "confidence": "verified", "district": "galle"}}, {"type": "Feature", "geometry": {"type": "Point", "coordinates": [80.04576, 6.288243]}, "properties": {"id": "dmc-016", "name": "GANEGAMA BODIRAJARAMA VIHARAYA", "type": "religious", "source": "dmc", "confidence": "verified", "district": "galle"}}, {"type": "Feature", "geometry": {"type": "Point", "coordinates": [80.042081, 6.291762]}, "properties": {"id": "dmc-017", "name": "SRI PUSHAPARAMA PURANA MAHA VIHARAYA", "type": "religious", "source": "dmc", "confidence": "verified", "district": "galle"}}, {"type": "Feature", "geometry": {"type": "Point", "coordinates": [80.040021, 6.264834]}, "properties": {"id": "dmc-018", "name": "BEERATUDUWA SRI SUNANDARAMA MAHA VIHARAYA", "type": "religious", "source": "dmc", "confidence": "verified", "district": "galle"}}, {"type": "Feature", "geometry": {"type": "Point", "coordinates": [80.040487, 6.260557]}, "properties": {"id": "dmc-019", "name": "WALAGEDARA PATHIRAJA MANTRINDARAMA VIHARAYA", "type": "religious", "source": "dmc", "confidence": "verified", "district": "galle"}}, {"type": "Feature", "geometry": {"type": "Point", "coordinates": [80.046291, 6.246808]}, "properties": {"id": "dmc-020", "name": "RANDOBE SANGARAJARAMA VIHARAYA", "type": "religious", "source": "dmc", "confidence": "verified", "district": "galle"}}, {"type": "Feature", "geometry": {"type": "Point", "coordinates": [80.05314, 6.247122]}, "properties": {"id": "dmc-021", "name": "SHAILATALARAMA MAHA VIHARAYA", "type": "religious", "source": "dmc", "confidence": "verified", "district": "galle"}}, {"type": "Feature", "geometry": {"type": "Point", "coordinates": [80.046011, 6.274511]}, "properties": {"id": "dmc-022", "name": "BALAPITIYA TECHNICAL COLEGE", "type": "building", "source": "dmc", "confidence": "verified", "district": "galle"}}, {"type": "Feature", "geometry": {"type": "Point", "coordinates": [80.045206, 6.274997]}, "properties": {"id": "dmc-023", "name": "ISADEEN BUDIST CENTER", "type": "religious", "source": "dmc", "confidence": "verified", "district": "galle"}}, {"type": "Feature", "geometry": {"type": "Point", "coordinates": [80.043566, 6.284487]}, "properties": {"id": "dmc-024", "name": "BALAPITIYA REWATHA NATIONAL COLEGE", "type": "building", "source": "dmc", "confidence": "verified", "district": "galle"}}, {"type": "Feature", "geometry": {"type": "Point", "coordinates": [80.055203, 6.247553]}, "properties": {"id": "dmc-025", "name": "SIRI NIKETHARAMA VIHARAYA", "type": "religious", "source": "dmc", "confidence": "verified", "district": "galle"}}, {"type": "Feature", "geometry": {"type": "Point", "coordinates": [80.104771, 6.155887]}, "properties": {"id": "dmc-026", "name": "KALUPE SRI NAGARUKKARAMAYA", "type": "religious", "source": "dmc", "confidence": "verified", "district": "galle"}}, {"type": "Feature", "geometry": {"type": "Point", "coordinates": [80.09731, 6.159088]}, "properties": {"id": "dmc-027", "name": "SEENIGAMA KUSUMARAMA PURANA MAHA VIHARAYA", "type": "religious", "source": "dmc", "confidence": "verified", "district": "galle"}}, {"type": "Feature", "geometry": {"type": "Point", "coordinates": [80.098771, 6.157029]}, "properties": {"id": "dmc-028", "name": "SEENIGAMA WIMALA BUDDHI MAHA VIDYALAYA", "type": "school", "source": "dmc", "confidence": "verified", "district": "galle"}}, {"type": "Feature", "geometry": {"type": "Point", "coordinates": [80.101797, 6.167984]}, "properties": {"id": "dmc-029", "name": "SRI PUSHPARAMA VIHARAYA", "type": "religious", "source": "dmc", "confidence": "verified", "district": "galle"}}, {"type": "Feature", "geometry": {"type": "Point", "coordinates": [80.091084, 6.170238]}, "properties": {"id": "dmc-030", "name": "KIRALAGAHAWILA KANISHTA VIDYALAYA", "type": "school", "source": "dmc", "confidence": "verified", "district": "galle"}}, {"type": "Feature", "geometry": {"type": "Point", "coordinates": [80.080322, 6.188924]}, "properties": {"id": "dmc-031", "name": "KULEGODA PURANA WANAWASALA WEHARAYA", "type": "religious", "source": "dmc", "confidence": "verified", "district": "galle"}}, {"type": "Feature", "geometry": {"type": "Point", "coordinates": [80.079538, 6.180888]}, "properties": {"id": "dmc-032", "name": "KURUPPUKANDA VIVEKARAMA VIHARAYA", "type": "religious", "source": "dmc", "confidence": "verified", "district": "galle"}}, {"type": "Feature", "geometry": {"type": "Point", "coordinates": [80.08908, 6.187128]}, "properties": {"id": "dmc-033", "name": "JAYANTHI VIHARAYA WEERAGODA", "type": "religious", "source": "dmc", "confidence": "verified", "district": "galle"}}, {"type": "Feature", "geometry": {"type": "Point", "coordinates": [80.085087, 6.187579]}, "properties": {"id": "dmc-034", "name": "WEERAGODA WIJAYABA PRIMARY VIDYALAYA", "type": "school", "source": "dmc", "confidence": "verified", "district": "galle"}}, {"type": "Feature", "geometry": {"type": "Point", "coordinates": [80.078494, 6.201635]}, "properties": {"id": "dmc-035", "name": "GALDOOWA ARANYA SENASANAYA", "type": "religious", "source": "dmc", "confidence": "verified", "district": "galle"}}, {"type": "Feature", "geometry": {"type": "Point", "coordinates": [80.071019, 6.211683]}, "properties": {"id": "dmc-036", "name": "KULEGODA SUMANA VIDYALAYA/ KULEEGODA PURANA WANAWASI VIHARAYA", "type": "school", "source": "dmc", "confidence": "verified", "district": "galle"}}, {"type": "Feature", "geometry": {"type": "Point", "coordinates": [80.082586, 6.212171]}, "properties": {"id": "dmc-037", "name": "GALAGODA SRI WIMALA VIHARAYA", "type": "religious", "source": "dmc", "confidence": "verified", "district": "galle"}}, {"type": "Feature", "geometry": {"type": "Point", "coordinates": [80.070378, 6.212152]}, "properties": {"id": "dmc-038", "name": "KULEEGODA SUMANA VIDYALAYA", "type": "school", "source": "dmc", "confidence": "verified", "district": "galle"}}, {"type": "Feature", "geometry": {"type": "Point", "coordinates": [80.083441, 6.206747]}, "properties": {"id": "dmc-039", "name": "GALAGODA JANAPADA KANITU VIDUHALA", "type": "school", "source": "dmc", "confidence": "verified", "district": "galle"}}, {"type": "Feature", "geometry": {"type": "Point", "coordinates": [80.068204, 6.230943]}, "properties": {"id": "dmc-040", "name": "VIVEKARAMA VIHARAYA", "type": "religious", "source": "dmc", "confidence": "verified", "district": "galle"}}, {"type": "Feature", "geometry": {"type": "Point", "coordinates": [80.127776, 6.118711]}, "properties": {"id": "dmc-041", "name": "HENNATHOTA VIDDYAWARDANA VIDDIYALAYA", "type": "school", "source": "dmc", "confidence": "verified", "district": "galle"}}, {"type": "Feature", "geometry": {"type": "Point", "coordinates": [80.132675, 6.130035]}, "properties": {"id": "dmc-042", "name": "PINKANDA KETHTARAMA VIHARAYA", "type": "religious", "source": "dmc", "confidence": "verified", "district": "galle"}}, {"type": "Feature", "geometry": {"type": "Point", "coordinates": [80.149245, 6.103384]}, "properties": {"id": "dmc-043", "name": "DEWAPATIRAJA MAHA VIDDIYALAYA", "type": "school", "source": "dmc", "confidence": "verified", "district": "galle"}}, {"type": "Feature", "geometry": {"type": "Point", "coordinates": [80.265923, 6.003711]}, "properties": {"id": "dmc-044", "name": "MIHIRIPENNA ARIYAKARA VIHARAYA", "type": "religious", "source": "dmc", "confidence": "verified", "district": "galle"}}, {"type": "Feature", "geometry": {"type": "Point", "coordinates": [80.249071, 6.022506]}, "properties": {"id": "dmc-045", "name": "BODHIRAJA VIHARAYA UNAWATUNA", "type": "religious", "source": "dmc", "confidence": "osm_verified", "district": "galle"}}, {"type": "Feature", "geometry": {"type": "Point", "coordinates": [80.247709, 6.036114]}, "properties": {"id": "dmc-046", "name": "UNAWATUNA COLLEGE", "type": "school", "source": "dmc", "confidence": "verified", "district": "galle"}}, {"type": "Feature", "geometry": {"type": "Point", "coordinates": [80.245984, 6.024447]}, "properties": {"id": "dmc-047", "name": "GALKETIYA DVIGUMKARAMA VIHARAYA", "type": "religious", "source": "dmc", "confidence": "osm_verified", "district": "galle"}}, {"type": "Feature", "geometry": {"type": "Point", "coordinates": [80.25415, 6.008703]}, "properties": {"id": "dmc-048", "name": "GANANANDARAMA VIHARAYA", "type": "religious", "source": "dmc", "confidence": "verified", "district": "galle"}}, {"type": "Feature", "geometry": {"type": "Point", "coordinates": [80.243898, 6.01059]}, "properties": {"id": "dmc-049", "name": "AMARASINGHA VIHARASTHANAYA YADDEHIMULLA", "type": "building", "source": "dmc", "confidence": "verified", "district": "galle"}}, {"type": "Feature", "geometry": {"type": "Point", "coordinates": [80.240259, 6.015388]}, "properties": {"id": "dmc-050", "name": "VIWEKARAMAYA BONAVISTAWA UNAWATUNA", "type": "religious", "source": "dmc", "confidence": "verified", "district": "galle"}}, {"type": "Feature", "geometry": {"type": "Point", "coordinates": [80.305053, 5.996746]}, "properties": {"id": "dmc-051", "name": "LIYANAGODA PULINATHALARAMA VIHARAYA", "type": "religious", "source": "dmc", "confidence": "verified", "district": "galle"}}, {"type": "Feature", "geometry": {"type": "Point", "coordinates": [80.308922, 6.001932]}, "properties": {"id": "dmc-052", "name": "CHETHIYARAMA VIHARAYA", "type": "religious", "source": "dmc", "confidence": "verified", "district": "galle"}}, {"type": "Feature", "geometry": {"type": "Point", "coordinates": [80.32052, 5.996937]}, "properties": {"id": "dmc-053", "name": "MUDALINDARAMA VIHARAYA", "type": "religious", "source": "dmc", "confidence": "verified", "district": "galle"}}, {"type": "Feature", "geometry": {"type": "Point", "coordinates": [80.317347, 5.999173]}, "properties": {"id": "dmc-054", "name": "MAGALTHOTA PANCHATUPARAMA VIHARAYA", "type": "religious", "source": "dmc", "confidence": "verified", "district": "galle"}}, {"type": "Feature", "geometry": {"type": "Point", "coordinates": [80.287747, 6.011289]}, "properties": {"id": "dmc-055", "name": "SRI PARAMA SRI NIKETHANA SUDHAMMARAMAYA", "type": "religious", "source": "dmc", "confidence": "verified", "district": "galle"}}, {"type": "Feature", "geometry": {"type": "Point", "coordinates": [80.285756, 5.998265]}, "properties": {"id": "dmc-056", "name": "MAKADUGODA NIGRODARAMA VIHARAYA", "type": "religious", "source": "dmc", "confidence": "verified", "district": "galle"}}, {"type": "Feature", "geometry": {"type": "Point", "coordinates": [80.379538, 5.972801]}, "properties": {"id": "dmc-057", "name": "NAPIRITHTHAGODA JAYAMAHA VIHARAYA", "type": "religious", "source": "dmc", "confidence": "verified", "district": "galle"}}, {"type": "Feature", "geometry": {"type": "Point", "coordinates": [80.378345, 5.971576]}, "properties": {"id": "dmc-058", "name": "SRI SEELAWANSHA VIDUHALA", "type": "school", "source": "dmc", "confidence": "verified", "district": "galle"}}, {"type": "Feature", "geometry": {"type": "Point", "coordinates": [80.37459, 5.972044]}, "properties": {"id": "dmc-059", "name": "VISUDDHARAMA VIHARAYA", "type": "religious", "source": "dmc", "confidence": "verified", "district": "galle"}}, {"type": "Feature", "geometry": {"type": "Point", "coordinates": [80.374477, 5.97215]}, "properties": {"id": "dmc-060", "name": "MAHA VIHARA TEMPLE", "type": "religious", "source": "dmc", "confidence": "verified", "district": "galle"}}, {"type": "Feature", "geometry": {"type": "Point", "coordinates": [80.365438, 5.975484]}, "properties": {"id": "dmc-061", "name": "THILAKAWARDHANARAMA VIHARAYA", "type": "religious", "source": "dmc", "confidence": "verified", "district": "galle"}}, {"type": "Feature", "geometry": {"type": "Point", "coordinates": [80.36924, 5.975372]}, "properties": {"id": "dmc-062", "name": "DHARMARAMA ADARSHA KANITU VIDUHALA", "type": "school", "source": "dmc", "confidence": "verified", "district": "galle"}}, {"type": "Feature", "geometry": {"type": "Point", "coordinates": [80.358997, 5.977387]}, "properties": {"id": "dmc-063", "name": "KURUDUWATTA SRI SIDDHARTHARAMA VIHARAYA", "type": "religious", "source": "dmc", "confidence": "verified", "district": "galle"}}, {"type": "Feature", "geometry": {"type": "Point", "coordinates": [80.337439, 5.989488]}, "properties": {"id": "dmc-064", "name": "RANWELLA PURANA VIHARAYA", "type": "religious", "source": "dmc", "confidence": "verified", "district": "galle"}}, {"type": "Feature", "geometry": {"type": "Point", "coordinates": [80.338202, 5.984755]}, "properties": {"id": "dmc-065", "name": "NAWAMUNU SE VIHARAYA", "type": "religious", "source": "dmc", "confidence": "verified", "district": "galle"}}, {"type": "Feature", "geometry": {"type": "Point", "coordinates": [80.342722, 5.985322]}, "properties": {"id": "dmc-066", "name": "KATHALUWA NATIONAL SCHOOL", "type": "school", "source": "dmc", "confidence": "verified", "district": "galle"}}, {"type": "Feature", "geometry": {"type": "Point", "coordinates": [80.350871, 5.987134]}, "properties": {"id": "dmc-067", "name": "KATHALUWA POORWARAMAYA", "type": "religious", "source": "dmc", "confidence": "verified", "district": "galle"}}, {"type": "Feature", "geometry": {"type": "Point", "coordinates": [80.229839, 6.050059]}, "properties": {"id": "dmc-068", "name": "SRI JINENDRHAMA TEMPLE", "type": "religious", "source": "dmc", "confidence": "osm_verified", "district": "galle"}}, {"type": "Feature", "geometry": {"type": "Point", "coordinates": [80.23391, 6.05086]}, "properties": {"id": "dmc-069", "name": "MALIGASPE SRI PURANA VIHARAYA", "type": "religious", "source": "dmc", "confidence": "dmc_listed", "district": "galle"}}, {"type": "Feature", "geometry": {"type": "Point", "coordinates": [80.22864, 6.06068]}, "properties": {"id": "dmc-070", "name": "SRI PARAWENDHRARAMA PURANA VIHARAYA", "type": "religious", "source": "dmc", "confidence": "dmc_listed", "district": "galle"}}, {"type": "Feature", "geometry": {"type": "Point", "coordinates": [80.22978, 6.04991]}, "properties": {"id": "dmc-071", "name": "MIRISWATTA TEMPLE", "type": "religious", "source": "dmc", "confidence": "dmc_listed", "district": "galle"}}, {"type": "Feature", "geometry": {"type": "Point", "coordinates": [80.22347, 6.06014]}, "properties": {"id": "dmc-072", "name": "HIRIMBURA NATIONAL HOUSING COMMUNITY HALL", "type": "building", "source": "dmc", "confidence": "dmc_listed", "district": "galle"}}, {"type": "Feature", "geometry": {"type": "Point", "coordinates": [80.23329, 6.06915]}, "properties": {"id": "dmc-073", "name": "ATHILA NANDHARAMA TEMPLE", "type": "religious", "source": "dmc", "confidence": "dmc_listed", "district": "galle"}}, {"type": "Feature", "geometry": {"type": "Point", "coordinates": [80.227882, 6.049208]}, "properties": {"id": "dmc-074", "name": "MILIDDUWA SUDARSHANARAMAYA", "type": "religious", "source": "dmc", "confidence": "dmc_listed", "district": "galle"}}, {"type": "Feature", "geometry": {"type": "Point", "coordinates": [80.219347, 6.041163]}, "properties": {"id": "dmc-075", "name": "WALIWATTHE WUAYANANDARAMAYA", "type": "religious", "source": "dmc", "confidence": "osm_verified", "district": "galle"}}, {"type": "Feature", "geometry": {"type": "Point", "coordinates": [80.180544, 6.06428]}, "properties": {"id": "dmc-076", "name": "WALIPITIMODARA THUPARAMA VIHARAYA", "type": "religious", "source": "dmc", "confidence": "osm_verified", "district": "galle"}}, {"type": "Feature", "geometry": {"type": "Point", "coordinates": [80.21217, 6.047125]}, "properties": {"id": "literature-077", "name": "Sanghamitta College", "type": "school", "source": "literature", "confidence": "osm_verified", "district": "galle"}}, {"type": "Feature", "geometry": {"type": "Point", "coordinates": [80.223908, 6.044931]}, "properties": {"id": "literature-078", "name": "Malharasulliya Boys College", "type": "school", "source": "literature", "confidence": "osm_verified", "district": "galle"}}, {"type": "Feature", "geometry": {"type": "Point", "coordinates": [80.230091, 6.0379]}, "properties": {"id": "literature-079", "name": "Anuladevi Girl School", "type": "school", "source": "literature", "confidence": "osm_verified", "district": "galle"}}, {"type": "Feature", "geometry": {"type": "Point", "coordinates": [80.237501, 6.033943]}, "properties": {"id": "literature-080", "name": "Sudarma College", "type": "school", "source": "literature", "confidence": "osm_verified", "district": "galle"}}, {"type": "Feature", "geometry": {"type": "Point", "coordinates": [80.216712, 6.035113]}, "properties": {"id": "literature-081", "name": "Dhamma School", "type": "school", "source": "literature", "confidence": "osm_verified", "district": "galle"}}, {"type": "Feature", "geometry": {"type": "Point", "coordinates": [80.21665, 6.034563]}, "properties": {"id": "literature-082", "name": "Vidyaloka College", "type": "school", "source": "literature", "confidence": "osm_verified", "district": "galle"}}, {"type": "Feature", "geometry": {"type": "Point", "coordinates": [80.200365, 6.041144]}, "properties": {"id": "literature-083", "name": "C.W.W Kannangara Vidyalaya", "type": "school", "source": "literature", "confidence": "osm_verified", "district": "galle"}}, {"type": "Feature", "geometry": {"type": "Point", "coordinates": [80.216071, 6.035776]}, "properties": {"id": "literature-084", "name": "Asiri Hospital", "type": "hospital", "source": "literature", "confidence": "osm_verified", "district": "galle"}}, {"type": "Feature", "geometry": {"type": "Point", "coordinates": [80.21651, 6.036438]}, "properties": {"id": "literature-085", "name": "Thasim Chest Clinic", "type": "hospital", "source": "literature", "confidence": "osm_verified", "district": "galle"}}, {"type": "Feature", "geometry": {"type": "Point", "coordinates": [80.217016, 6.037343]}, "properties": {"id": "literature-086", "name": "District Survey Office", "type": "government", "source": "literature", "confidence": "osm_verified", "district": "galle"}}, {"type": "Feature", "geometry": {"type": "Point", "coordinates": [80.209487, 6.037019]}, "properties": {"id": "literature-087", "name": "Technical College - Galle", "type": "government", "source": "literature", "confidence": "osm_verified", "district": "galle"}}, {"type": "Feature", "geometry": {"type": "Point", "coordinates": [80.216613, 6.036102]}, "properties": {"id": "literature-088", "name": "Divisional Secretariat Galle", "type": "government", "source": "literature", "confidence": "osm_verified", "district": "galle"}}, {"type": "Feature", "geometry": {"type": "Point", "coordinates": [80.204378, 6.040483]}, "properties": {"id": "literature-089", "name": "Kovilagodella Temple", "type": "religious", "source": "literature", "confidence": "osm_verified", "district": "galle"}}, {"type": "Feature", "geometry": {"type": "Point", "coordinates": [80.220616, 6.039415]}, "properties": {"id": "literature-090", "name": "Wijayananda Temple", "type": "religious", "source": "literature", "confidence": "osm_verified", "district": "galle"}}, {"type": "Feature", "geometry": {"type": "Point", "coordinates": [80.23683, 6.038562]}, "properties": {"id": "literature-091", "name": "Sudarmarama Temple", "type": "religious", "source": "literature", "confidence": "osm_verified", "district": "galle"}}, {"type": "Feature", "geometry": {"type": "Point", "coordinates": [80.212462, 6.033591]}, "properties": {"id": "literature-092", "name": "Shiwa Hindu Temple", "type": "religious", "source": "literature", "confidence": "osm_verified", "district": "galle"}}, {"type": "Feature", "geometry": {"type": "Point", "coordinates": [80.2049, 6.0519]}, "properties": {"id": "literature-093", "name": "Richmond College", "type": "school", "source": "literature", "confidence": "osm_verified", "district": "galle"}}, {"type": "Feature", "geometry": {"type": "Point", "coordinates": [80.211, 6.0366]}, "properties": {"id": "literature-094", "name": "Sacred Heart Convent", "type": "school", "source": "literature", "confidence": "osm_verified", "district": "galle"}}, {"type": "Feature", "geometry": {"type": "Point", "coordinates": [80.2121, 6.0361]}, "properties": {"id": "literature-095", "name": "St. Aloysius College", "type": "school", "source": "literature", "confidence": "osm_verified", "district": "galle"}}, {"type": "Feature", "geometry": {"type": "Point", "coordinates": [80.2068, 6.0388]}, "properties": {"id": "literature-096", "name": "Mahamodara Teaching Hospital", "type": "hospital", "source": "literature", "confidence": "osm_verified", "district": "galle"}}, {"type": "Feature", "geometry": {"type": "Point", "coordinates": [80.2182, 6.0408]}, "properties": {"id": "literature-097", "name": "Southern Province Governors Office", "type": "government", "source": "literature", "confidence": "osm_verified", "district": "galle"}}, {"type": "Feature", "geometry": {"type": "Point", "coordinates": [80.2075, 6.0451]}, "properties": {"id": "literature-098", "name": "Chief Secretarys Office - Southern Province", "type": "government", "source": "literature", "confidence": "osm_verified", "district": "galle"}}, {"type": "Feature", "geometry": {"type": "Point", "coordinates": [80.2182, 6.0408]}, "properties": {"id": "literature-099", "name": "Southern Province Governors Office (Karapitiya)", "type": "government", "source": "literature", "confidence": "osm_verified", "district": "galle"}}]}