{"type": "FeatureCollection", "features": [{"type": "Feature", "geometry": {"type": "Polygon", "coordinates": [[[80.77359165547817, 6.005410963209836], [80.77367386824804, 6.0062741972933535], [80.77441378317677, 6.006315303678282], [80.77525646406781, 6.006664707950183], [80.77581140026436, 6.006788027104971], [80.77685961308006, 6.006623601565253], [80.77764063439372, 6.006027558983777], [80.77891493232653, 6.0060481121762415], [80.77981927279498, 6.006335856870748], [80.78014812387441, 6.00721964414673], [80.78018923025934, 6.0085144952720055], [80.77975761321758, 6.0095010485103115], [80.78016867706688, 6.010343729401364], [80.78134020903737, 6.010405388978758], [80.78099080476548, 6.011967431606076], [80.78117578349766, 6.013138963576563], [80.78185403884899, 6.013508921040928], [80.78273782612497, 6.012974538036846], [80.78220344312089, 6.011844112451287], [80.78413544321258, 6.0117413464889635], [80.78604689011179, 6.01198798479854], [80.78649906034602, 6.01303619761424], [80.78643740076862, 6.014022750852545], [80.78596467734194, 6.01539981474768], [80.78666348588574, 6.0162836020236625], [80.78742395400693, 6.016756325450351], [80.78882157109453, 6.016735772257886], [80.78917097536645, 6.0174345808016865], [80.78949982644588, 6.018503346809851], [80.78956148602327, 6.019304921315975], [80.78900654982672, 6.019489900048157], [80.78869825193975, 6.020353134131674], [80.78927374132876, 6.021216368215192], [80.79044527329926, 6.021113602252868], [80.79110297545812, 6.020209261784421], [80.7913496137677, 6.019469346855692], [80.79252114573819, 6.019469346855692], [80.7934460393991, 6.01955155962555], [80.79420650752029, 6.019736538357733], [80.79560412460789, 6.020270921361815], [80.79675510338589, 6.020969729905615], [80.79765944385434, 6.021175261830262], [80.79950923117616, 6.021319134177515], [80.80004361418025, 6.022223474645962], [80.80000250779531, 6.022901729997297], [80.79772110343174, 6.023991049197926], [80.79757723108447, 6.025655857787567], [80.79726893319751, 6.026539645063549], [80.79603574164963, 6.026930155720379], [80.79443259263738, 6.027279559992278], [80.79367212451619, 6.027711177034037], [80.79315829470457, 6.028101687690866], [80.79328161385936, 6.029355432431213], [80.79266501808542, 6.030855815481137], [80.79178123080943, 6.031821815526977], [80.79003420944994, 6.032191772991342], [80.78880101790206, 6.032232879376272], [80.78684846461792, 6.032828921957748], [80.78610854968919, 6.033178326229648], [80.78462871983173, 6.033979900735771], [80.78425876236737, 6.035048666743935], [80.78551250710771, 6.0357680284801996], [80.78680735823299, 6.0362613050993525], [80.7876705923165, 6.036939560450688], [80.78841050724523, 6.036980666835618], [80.78925318813629, 6.036487390216465], [80.78956148602326, 6.03782334772667], [80.78943816686846, 6.039035986082087], [80.78989033710269, 6.039693688240958], [80.7907535711862, 6.039714241433423], [80.790876890341, 6.0413996032155275], [80.79056859245402, 6.042694454340804], [80.79026029456705, 6.0441948373907275], [80.78986978391022, 6.045325262976285], [80.78970535837051, 6.046640667294028], [80.78956148602326, 6.048202709921346], [80.78964369879311, 6.049250922737045], [80.79023974137459, 6.050381348322603], [80.79100020949579, 6.051121263251333], [80.79194565634917, 6.0515939866780215], [80.79278833724021, 6.051655646255415], [80.79459701817711, 6.051285688791051], [80.79515195437365, 6.051224029213657], [80.79601518845718, 6.050751305786968], [80.79669344380851, 6.04988807170345], [80.79726893319751, 6.049394795084298], [80.79780331620161, 6.049209816352116], [80.79878986943991, 6.049045390812398], [80.79940646521385, 6.050031944050704], [80.7992009332892, 6.050689646209574], [80.79749501831463, 6.051409007945839], [80.79677565657836, 6.051963944142385], [80.79595352887978, 6.052868284610833], [80.7959946352647, 6.054224795313503], [80.79712506085026, 6.055355220899061], [80.7974539119297, 6.055457986861384], [80.79866655028512, 6.055314114514132], [80.79969420990835, 6.0544303272381494], [80.80022859291243, 6.05408092296625], [80.8012356993432, 6.053505433577238], [80.80172897596235, 6.053854837849138], [80.80172897596235, 6.055046923012091], [80.80117403976581, 6.05609513582779], [80.80035191206721, 6.056999476296237], [80.79926259286658, 6.058273774229049], [80.79889263540223, 6.0588081572331305], [80.7975155715071, 6.059404199814607], [80.79761833746943, 6.060575731785096], [80.79872820986253, 6.062322753144596], [80.79987918864055, 6.063864242579448], [80.80092740145625, 6.064521944738319], [80.80156455042265, 6.064624710700642], [80.80174952915483, 6.063617604269871], [80.800783529109, 6.062774923378819], [80.8003108056823, 6.062014455257625], [80.8004341248371, 6.061089561596713], [80.80012582695012, 6.060534625400166], [80.80125625253568, 6.061027902019319], [80.80164676319251, 6.061747263755584], [80.8020578270418, 6.0620966680274835], [80.80300327389519, 6.061829476525443], [80.80333212497462, 6.061377306291219], [80.80333212497462, 6.059876923241296], [80.80366097605405, 6.058623178500949], [80.80419535905814, 6.057513306107856], [80.8045653165225, 6.056978923103773], [80.80625067830461, 6.0572255614133494], [80.80721667835044, 6.057677731647573], [80.80733999750524, 6.057842157187291], [80.80729889112031, 6.058438199768767], [80.80684672088609, 6.059116455120102], [80.80641510384433, 6.060123561550872], [80.8070111464258, 6.061027902019319], [80.80740165708264, 6.061438965868613], [80.807771614547, 6.061521178638472], [80.80871706140037, 6.061130667981643], [80.8086965082079, 6.0607401573248145], [80.80978582740853, 6.060144114743339], [80.81029965722016, 6.059260327467356], [80.81064906149206, 6.058232667844121], [80.81122455088106, 6.057410540145533], [80.81153284876804, 6.056650072024339], [80.8115534019605, 6.055314114514133], [80.81182059346254, 6.053793178271744], [80.81237552965909, 6.051902284564991], [80.81268382754605, 6.0507101994020385], [80.81256050839127, 6.049682539778804], [80.81235497646662, 6.048695986540498], [80.8128893594707, 6.048141050343951], [80.81356761482203, 6.048058837574092], [80.81428697655831, 6.04721615668304], [80.81457472125281, 6.046496794946775], [80.81541740214386, 6.046599560909098], [80.81611621068767, 6.045839092787904], [80.81617787026504, 6.0439276458886875], [80.81665059369173, 6.04306441180517], [80.81780157246975, 6.042735560725735], [80.8180687639718, 6.043598794809252], [80.81796599800947, 6.044523688470164], [80.81763714693004, 6.0455719012858635], [80.81734940223552, 6.046681773678958], [80.8173082958506, 6.048367135461063], [80.81697944477116, 6.049045390812398], [80.81667114688419, 6.050196369590421], [80.81671225326912, 6.052005050527316], [80.81720552988827, 6.053053263343016], [80.81874701932313, 6.052888837803298], [80.81989799810114, 6.05245722076154], [80.82098731730177, 6.052436667569075], [80.82082289176206, 6.05315602930534], [80.81958970021418, 6.0540603697737865], [80.81903476401763, 6.055355220899062], [80.81874701932314, 6.0570611358736315], [80.8180687639718, 6.057821603994825], [80.81782212566222, 6.058602625308484], [80.8194663810594, 6.058808157233131], [80.82008297683335, 6.058171008266725], [80.82078178537714, 6.057163901835954], [80.82146004072848, 6.0567322847941965], [80.8222616152346, 6.055725178363426], [80.82246714715924, 6.055334667706596], [80.8233098280503, 6.054944157049767], [80.82425527490368, 6.05477973151005], [80.8250568494098, 6.0544303272381494], [80.82587897710839, 6.053978157003926], [80.82653667926726, 6.053546539962167], [80.8277287644302, 6.052950497380691], [80.82873587086097, 6.052251688836892], [80.8298251900616, 6.052416114376609], [80.82986629644653, 6.054060369773785], [80.82859199851372, 6.055704625170962], [80.82828370062674, 6.056547306062014], [80.82945523259723, 6.057410540145532], [80.83029791348828, 6.056978923103773], [80.83124336034166, 6.057862710379755], [80.83173663696083, 6.058397093383837], [80.831346126304, 6.059650838124184], [80.8314077858814, 6.06024688070566], [80.83229157315738, 6.060534625400166], [80.83315480724089, 6.060657944554954], [80.83381250939976, 6.0616033914083305], [80.83444965836617, 6.062240540374736], [80.83549787118187, 6.0624255191069185], [80.83685438188454, 6.062178880797342], [80.83734765850369, 6.061089561596713], [80.83603225418595, 6.059671391316648], [80.8357650626839, 6.058664284885878], [80.83724489254136, 6.0582121146516545], [80.83796425427764, 6.057574965685249], [80.83860140324404, 6.057163901835954], [80.83860140324403, 6.056197901790114], [80.83823144577966, 6.0555813060161725], [80.83893025432346, 6.054553646392938], [80.84197212680824, 6.053649305924491], [80.84293812685408, 6.053299901652591], [80.84464404182864, 6.052950497380691], [80.8465965951128, 6.0542659016984315], [80.84745982919631, 6.054286454890897], [80.84774757389081, 6.0559101570956075], [80.84854914839694, 6.05679394437159], [80.8496795739825, 6.057163901835954], [80.85130327618721, 6.056917263526379], [80.85333804224122, 6.056814497564055], [80.8548589784836, 6.056814497564055], [80.85578387214451, 6.056033476250397], [80.85656489345818, 6.0551496889744145], [80.85711982965472, 6.056177348597649], [80.8567909785753, 6.049209816352116], [80.85152936130434, 6.047318922645363], [80.85226927623307, 6.045428028938611], [80.8562154891863, 6.045839092787905], [80.85917514890122, 6.044852539549599], [80.86172374476683, 6.043372709692141], [80.86049055321895, 6.042550581993553], [80.85753089350403, 6.044441475700306], [80.85391353163025, 6.044667560817415], [80.84967957398253, 6.044975858704386], [80.84340057368455, 6.044616177836254], [80.84085197781893, 6.043999582062313], [80.83855002026287, 6.04385570971506], [80.8316647007872, 6.042951369246612], [80.82847895595518, 6.042828050091824], [80.82315567910682, 6.04175928408366], [80.81812014695298, 6.041286560656972], [80.81596206174417, 6.039806730799514], [80.81329014672376, 6.039436773335149], [80.811399253017, 6.038758517983815], [80.80632261447825, 6.036415454042839], [80.80437006119409, 6.035942730616151], [80.80315742283868, 6.034935624185381], [80.8025613802572, 6.03396962413954], [80.80071159293537, 6.031215496349268], [80.79943729500256, 6.029530134567163], [80.79851240134165, 6.027885879169987], [80.79840963537934, 6.02632383654267], [80.79873848645877, 6.02492621945507], [80.79997167800666, 6.0239191130242995], [80.80118431636208, 6.022809240631206], [80.80044440143335, 6.021555495890859], [80.79993057162173, 6.0208566873470595], [80.79838908218686, 6.0200756660334], [80.79653929486504, 6.019500176644389], [80.79473061392814, 6.018986346832771], [80.79261363510427, 6.018657495753336], [80.79138044355639, 6.017547623360242], [80.79230533721731, 6.018595836175941], [80.79257252871936, 6.0179997935944645], [80.79177095421323, 6.017342091435594], [80.79101048609203, 6.017835368054747], [80.79105159247698, 6.016787155239047], [80.7903938903181, 6.016129453080177], [80.7889962732305, 6.015677282845953], [80.78766031572029, 6.0154306445363765], [80.78706427313882, 6.014320772143283], [80.7871875922936, 6.012758729515966], [80.785789975206, 6.011176133696184], [80.78391963469171, 6.010641750692101], [80.78231648567947, 6.009984048533231], [80.78169988990552, 6.008853622947672], [80.78149435798089, 6.007579325014861], [80.78108329413159, 6.006407793044373], [80.78093942178434, 6.005154048304026], [80.77896631530773, 6.005133495111561], [80.7774659322578, 6.005236261073885], [80.77469125127507, 6.005318473843744], [80.77359165547817, 6.005410963209836]]]}, "properties": {"district": "tangalle", "depth_threshold_m": 0.5}}, {"type": "Feature", "geometry": {"type": "Polygon", "coordinates": [[[80.86154904263087, 6.043506305443158], [80.86261780863903, 6.04543830553484], [80.86586521304845, 6.047781369475816], [80.86524861727452, 6.049590050412709], [80.86315219164311, 6.049877795107215], [80.86200121286508, 6.048767922714121], [80.86011031915834, 6.048726816329192], [80.85932929784468, 6.049590050412709], [80.85830163822145, 6.051193199424956], [80.85793168075708, 6.052837454822132], [80.85735619136807, 6.054974986838461], [80.8580961062968, 6.05641371031099], [80.85986368084876, 6.056537029465778], [80.86154904263087, 6.057194731624649], [80.86237117032945, 6.057400263549296], [80.86426206403621, 6.057605795473942], [80.86570078750873, 6.057564689089014], [80.8661940641279, 6.059373370025907], [80.86742725567576, 6.061798646736741], [80.86837270252914, 6.0630318382846236], [80.86960589407703, 6.064758306451658], [80.87108572393448, 6.064881625606446], [80.87240112825224, 6.06533379584067], [80.8740453836494, 6.065621540535176], [80.87519636242743, 6.06463498729687], [80.87642955397531, 6.065868178844752], [80.87700504336432, 6.066936944852917], [80.87774495829305, 6.066813625698129], [80.87885483068615, 6.0665258810036224], [80.87807380937248, 6.067923498091222], [80.8786492987615, 6.06878673217474], [80.87889593707108, 6.069033370484316], [80.87700504336432, 6.068293455555587], [80.87581295820137, 6.068211242785728], [80.87511414965756, 6.068416774710375], [80.8736343198001, 6.067964604476152], [80.87285329848645, 6.067183583162493], [80.87149678778378, 6.067635753396717], [80.8712501494742, 6.0691566896391045], [80.87309993679604, 6.070718732266422], [80.87560742627673, 6.0712942216554335], [80.87712836251912, 6.072897370667681], [80.87614180928081, 6.074089455830633], [80.8744564474987, 6.073267328132045], [80.87330546872069, 6.073267328132045], [80.87285329848646, 6.075939243152456], [80.8716612133235, 6.075445966533303], [80.87063355370027, 6.073883923905986], [80.8706746600852, 6.076555838926397], [80.87153789416871, 6.078364519863291], [80.87272997933167, 6.08107754126863], [80.87383985172475, 6.083954988213689], [80.87462087303841, 6.084982647836924], [80.87610070289587, 6.0838727754438295], [80.87733389444375, 6.082351839201442], [80.87827934129713, 6.0822285200466535], [80.87901925622586, 6.082310732816513], [80.88054019246825, 6.082146307276795], [80.88041687331346, 6.083749456289041], [80.88230776702021, 6.084982647836924], [80.8838287032626, 6.084736009527347], [80.8848152565009, 6.0827217966658065], [80.88526742673513, 6.081981881737077], [80.88650061828301, 6.0822285200466535], [80.88703500128709, 6.082927328590453], [80.88859704391442, 6.083420605209606], [80.8892958524582, 6.084283839293124], [80.89015908654173, 6.083831669058901], [80.89106342701017, 6.083749456289041], [80.89229661855805, 6.084777115912277], [80.89307763987172, 6.085517030841006], [80.89402308672508, 6.084571583987629], [80.89476300165381, 6.083091754130171], [80.89451636334424, 6.082187413661725], [80.89258436325257, 6.081653030657642], [80.8918033419389, 6.0809131157289125], [80.89204998024847, 6.079803243335819], [80.88978912907736, 6.078528945403008], [80.88974802269243, 6.07770681770442], [80.89073457593074, 6.077213541085267], [80.89135117170468, 6.076350307001749], [80.89385866118538, 6.076925796390761], [80.89463968249903, 6.077213541085267], [80.89595508681677, 6.076555838926396], [80.8971060655948, 6.076473626156537], [80.89796929967831, 6.0770902219304785], [80.8985036826824, 6.07766571131949], [80.89953134230564, 6.076350307001749], [80.89854478906733, 6.075076009068938], [80.89932581038099, 6.07355507282655], [80.89895585291661, 6.072691838743032], [80.89846257629746, 6.072527413203315], [80.89731159751945, 6.072404094048527], [80.89722938474958, 6.071417540810221], [80.89583176766199, 6.071458647195151], [80.89488632080861, 6.072075242969091], [80.8941875122648, 6.071623072734868], [80.89381755480045, 6.070965370575998], [80.89377644841552, 6.069238902408962], [80.89505074634833, 6.068992264099386], [80.89628393789621, 6.07010213649248], [80.8959961932017, 6.071458647195151], [80.8971060655948, 6.071047583345856], [80.89727049113452, 6.069238902408962], [80.89772266136873, 6.06804681724601], [80.89825704437283, 6.067635753396716], [80.89920249122619, 6.066484774618693], [80.90207993817125, 6.065498221380387], [80.90364198079857, 6.0653749022255985], [80.90487517234645, 6.0657037533050335], [80.90442300211222, 6.06664920015841], [80.90306649140956, 6.0671835831624925], [80.90290206586984, 6.068334561940516], [80.90376529995336, 6.068663413019951], [80.90656053412856, 6.0676768597816455], [80.90820478952574, 6.068951157714457], [80.90808147037094, 6.069855498182903], [80.90841032145039, 6.071129796115715], [80.90705381074771, 6.071458647195151], [80.90684827882306, 6.0723218812786675], [80.90841032145039, 6.073020689822467], [80.90960240661333, 6.0726507323581025], [80.91108223647079, 6.0726507323581025], [80.91050674708178, 6.074089455830632], [80.91009568323248, 6.074541626064855], [80.9099723640777, 6.075815923997667], [80.91198657693924, 6.076391413386679], [80.91321976848712, 6.0751171154538675], [80.91297313017755, 6.073678391981338], [80.9134664067967, 6.072568519588244], [80.91469959834458, 6.0721574557389495], [80.91560393881302, 6.071581966349938], [80.91712487505542, 6.071623072734868], [80.91807032190879, 6.072691838743032], [80.91864581129781, 6.074706051604573], [80.92024896031005, 6.076350307001749], [80.91987900284569, 6.077336860240055], [80.9183580666033, 6.078035668783855], [80.9176592580595, 6.078816690097513], [80.91506955580894, 6.078611158172866], [80.91391857703094, 6.078898902867372], [80.91293202379264, 6.078898902867372], [80.91071227900645, 6.07902222202216], [80.90808147037096, 6.080748690189195], [80.90808147037096, 6.081981881737077], [80.90898581083941, 6.082269626431583], [80.9100956832325, 6.081570817887783], [80.9112055556256, 6.080748690189195], [80.91309644933234, 6.080337626339901], [80.91363083233642, 6.08177634981243], [80.91432964088023, 6.082639583895948], [80.91494623665417, 6.08317396690003], [80.91724819421022, 6.083009541360312], [80.91802921552387, 6.0830506477452415], [80.92045449223471, 6.082269626431583], [80.92213985401682, 6.082105200891865], [80.92279755617568, 6.082598477511018], [80.92394853495371, 6.083297286054818], [80.92530504565637, 6.080789796574124], [80.92551057758102, 6.079145541176948], [80.92694930105355, 6.076843583620902], [80.92830581175623, 6.076884690005831], [80.92904572668496, 6.077172434700337], [80.92949789691917, 6.077706817704419], [80.92958010968904, 6.079556605026243], [80.9300733863082, 6.080090988030324], [80.93171764170536, 6.079186647561878], [80.9320464927848, 6.077706817704419], [80.93278640771354, 6.077213541085267], [80.93377296095184, 6.076720264466114], [80.93492393972984, 6.07639141338668], [80.93556108869625, 6.077891796436601], [80.93630100362493, 6.081221413615883], [80.93662985470438, 6.083605583941789], [80.93802747179197, 6.083770009481507], [80.94328908906294, 6.085743115958118], [80.94501555722998, 6.087469584125152], [80.94748194032574, 6.090347031070211], [80.94961947234206, 6.091580222618093], [80.95109930219952, 6.088456137363458], [80.95438781299387, 6.090100392760634], [80.95381232360486, 6.094293244023434], [80.95447002576374, 6.097006265428774], [80.95668977054993, 6.0960197121904685], [80.95644313224035, 6.089442690601764], [80.95890951533612, 6.089771541681199], [80.96121147289216, 6.091004733229082], [80.9631023665989, 6.093060052475551], [80.96441777091665, 6.09593749942061], [80.96491104753581, 6.096430776039763], [80.96507547307552, 6.091991286467387], [80.96499326030566, 6.089524903371623], [80.96655530293297, 6.087962860744305], [80.9705015158862, 6.088784988442893], [80.97403666499014, 6.091580222618093], [80.97740738855434, 6.089196052292188], [80.98225794197602, 6.090840307689364], [80.98439547399235, 6.093224478015269], [80.98784841032642, 6.092813414165975], [80.98283343136502, 6.088702775673035], [80.97954492057067, 6.087140733045717], [80.97124143081494, 6.086071967037553], [80.96269130274962, 6.085660903188259], [80.95611428116092, 6.084345498870518], [80.95126372773925, 6.083441158402072], [80.94542662107928, 6.083194520092495], [80.93852074841115, 6.077768477281813], [80.93473896099765, 6.075055455876472], [80.92865521602809, 6.074233328177884], [80.92479121584473, 6.073328987709438], [80.91895410918475, 6.070369327994521], [80.91435019407267, 6.068560647057627], [80.91196602374676, 6.067080817200169], [80.90834866187296, 6.065436561802993], [80.90481351276904, 6.063874519175675], [80.89811317202555, 6.062559114857935], [80.89104287381768, 6.062394689318217], [80.88713776724938, 6.0624769020880755], [80.8759568305486, 6.05939392321837], [80.87127070266665, 6.056763114582888], [80.86773555356272, 6.053310178248818], [80.8665845747847, 6.048870688676443], [80.86642014924499, 6.046733156660114], [80.86457036192317, 6.045006688493079], [80.86306997887326, 6.043711837367804], [80.86185734051784, 6.043054135208933], [80.86154904263087, 6.043506305443158]]]}, "properties": {"district": "tangalle", "depth_threshold_m": 0.5}}, {"type": "Feature", "geometry": {"type": "Polygon", "coordinates": [[[80.92931291818697, 6.096718520734269], [80.93079274804442, 6.092977839705694], [80.92960066288147, 6.091251371538659], [80.92943623734176, 6.0890727331374], [80.93054610973485, 6.087880647974448], [80.93038168419513, 6.086113073422483], [80.93161487574301, 6.085825328727978], [80.93161487574301, 6.084139966945872], [80.9313271310485, 6.082988988167849], [80.92960066288147, 6.084181073330802], [80.92898406710754, 6.085743115958119], [80.92894296072261, 6.087839541589519], [80.92869632241303, 6.089278265062047], [80.92729870532543, 6.088456137363459], [80.92561334354332, 6.088045073514166], [80.92524338607896, 6.089730435296271], [80.9272575989405, 6.091415797078376], [80.92931291818697, 6.0938410737892115], [80.92877853518289, 6.095567541956246], [80.92873742879796, 6.09667741434934], [80.92931291818697, 6.096718520734269]]]}, "properties": {"district": "tangalle", "depth_threshold_m": 0.5}}]}