{"type": "FeatureCollection", "features": [{"type": "Feature", "geometry": {"type": "Point", "coordinates": [80.794835, 6.022919]}, "properties": {"id": "osm-000", "name": "Tangalle Boys' National School", "type": "school", "source": "osm", "confidence": "unverified", "district": "tangalle"}}, {"type": "Feature", "geometry": {"type": "Point", "coordinates": [80.795072, 6.022305]}, "properties": {"id": "osm-001", "name": "Boys' National School", "type": "school", "source": "osm", "confidence": "unverified", "district": "tangalle"}}, {"type": "Feature", "geometry": {"type": "Point", "coordinates": [80.794468, 6.023004]}, "properties": {"id": "osm-002", "name": "Hospital (OSM)", "type": "hospital", "source": "osm", "confidence": "unverified", "district": "tangalle"}}, {"type": "Feature", "geometry": {"type": "Point", "coordinates": [80.797599, 6.022649]}, "properties": {"id": "osm-003", "name": "Hospital (OSM)", "type": "hospital", "source": "osm", "confidence": "unverified", "district": "tangalle"}}, {"type": "Feature", "geometry": {"type": "Point", "coordinates": [80.871371, 6.092452]}, "properties": {"id": "osm-004", "name": "H/Kahandawa kanishta Vidyalaya", "type": "school", "source": "osm", "confidence": "unverified", "district": "tangalle"}}, {"type": "Feature", "geometry": {"type": "Point", "coordinates": [80.79531, 6.026545]}, "properties": {"id": "osm-005", "name": "Tangalle Town Hall", "type": "government", "source": "osm", "confidence": "unverified", "district": "tangalle"}}, {"type": "Feature", "geometry": {"type": "Point", "coordinates": [80.872123, 6.093068]}, "properties": {"id": "osm-006", "name": "H/kahandawa purana raja maha wiharaya", "type": "religious", "source": "osm", "confidence": "unverified", "district": "tangalle"}}, {"type": "Feature", "geometry": {"type": "Point", "coordinates": [80.777461, 6.037649]}, "properties": {"id": "osm-007", "name": "Religious (OSM)", "type": "religious", "source": "osm", "confidence": "unverified", "district": "tangalle"}}, {"type": "Feature", "geometry": {"type": "Point", "coordinates": [80.783091, 6.056977]}, "properties": {"id": "osm-008", "name": "Religious (OSM)", "type": "religious", "source": "osm", "confidence": "unverified", "district": "tangalle"}}, {"type": "Feature", "geometry": {"type": "Point", "coordinates": [80.780046, 6.091044]}, "properties": {"id": "osm-009", "name": "Religious (OSM)", "type": "religious", "source": "osm", "confidence": "unverified", "district": "tangalle"}}, {"type": "Feature", "geometry": {"type": "Point", "coordinates": [80.843943, 6.069082]}, "properties": {"id": "osm-010", "name": "Religious (OSM)", "type": "religious", "source": "osm", "confidence": "unverified", "district": "tangalle"}}, {"type": "Feature", "geometry": {"type": "Point", "coordinates": [80.773479, 6.033599]}, "properties": {"id": "osm-011", "name": "Ruhunu Vijayaba College", "type": "school", "source": "osm", "confidence": "unverified", "district": "tangalle"}}, {"type": "Feature", "geometry": {"type": "Point", "coordinates": [80.77772, 6.017733]}, "properties": {"id": "osm-012", "name": "Kadurupokuna M.V.", "type": "school", "source": "osm", "confidence": "unverified", "district": "tangalle"}}, {"type": "Feature", "geometry": {"type": "Point", "coordinates": [80.876617, 6.098179]}, "properties": {"id": "osm-013", "name": "Ranna maha vidyalya", "type": "school", "source": "osm", "confidence": "unverified", "district": "tangalle"}}, {"type": "Feature", "geometry": {"type": "Point", "coordinates": [80.836811, 6.066631]}, "properties": {"id": "osm-014", "name": "School (OSM)", "type": "school", "source": "osm", "confidence": "unverified", "district": "tangalle"}}, {"type": "Feature", "geometry": {"type": "Point", "coordinates": [80.78958, 6.026639]}, "properties": {"id": "osm-015", "name": "Kudaviharaya", "type": "religious", "source": "osm", "confidence": "unverified", "district": "tangalle"}}, {"type": "Feature", "geometry": {"type": "Point", "coordinates": [80.796453, 6.025699]}, "properties": {"id": "osm-016", "name": "St Francis of Assisi", "type": "religious", "source": "osm", "confidence": "unverified", "district": "tangalle"}}, {"type": "Feature", "geometry": {"type": "Point", "coordinates": [80.797125, 6.02216]}, "properties": {"id": "osm-017", "name": "Religious (OSM)", "type": "religious", "source": "osm", "confidence": "unverified", "district": "tangalle"}}, {"type": "Feature", "geometry": {"type": "Point", "coordinates": [80.794892, 6.02345]}, "properties": {"id": "osm-018", "name": "Methodist Church Tangalle", "type": "religious", "source": "osm", "confidence": "unverified", "district": "tangalle"}}, {"type": "Feature", "geometry": {"type": "Point", "coordinates": [80.791845, 6.023316]}, "properties": {"id": "osm-019", "name": "Model School Tangalle", "type": "school", "source": "osm", "confidence": "unverified", "district": "tangalle"}}, {"type": "Feature", "geometry": {"type": "Point", "coordinates": [80.783346, 6.031828]}, "properties": {"id": "osm-020", "name": "Polommaruwa Model School", "type": "school", "source": "osm", "confidence": "unverified", "district": "tangalle"}}, {"type": "Feature", "geometry": {"type": "Point", "coordinates": [80.793369, 6.02539]}, "properties": {"id": "osm-021", "name": "Tangalle Primary School", "type": "school", "source": "osm", "confidence": "unverified", "district": "tangalle"}}, {"type": "Feature", "geometry": {"type": "Point", "coordinates": [80.839021, 6.062502]}, "properties": {"id": "osm-022", "name": "Sri Subodharamaya", "type": "religious", "source": "osm", "confidence": "unverified", "district": "tangalle"}}, {"type": "Feature", "geometry": {"type": "Point", "coordinates": [80.796872, 6.022706]}, "properties": {"id": "osm-023", "name": "Base Hospital", "type": "hospital", "source": "osm", "confidence": "unverified", "district": "tangalle"}}, {"type": "Feature", "geometry": {"type": "Point", "coordinates": [80.797252, 6.022348]}, "properties": {"id": "osm-024", "name": "Religious (OSM)", "type": "religious", "source": "osm", "confidence": "unverified", "district": "tangalle"}}, {"type": "Feature", "geometry": {"type": "Point", "coordinates": [80.797322, 6.058611]}, "properties": {"id": "osm-025", "name": "Religious (OSM)", "type": "religious", "source": "osm", "confidence": "unverified", "district": "tangalle"}}]}