{"type": "FeatureCollection", "features": [{"type": "Feature", "geometry": {"type": "Polygon", "coordinates": [[[80.41225625535255, 5.95916114186615], [80.41235902131487, 5.96082595045579], [80.4126262128169, 5.962449652660502], [80.41316059582098, 5.962984035664585], [80.41404438309698, 5.961668631346844], [80.41375663840246, 5.959839397217485], [80.4137977447874, 5.9581540354353795], [80.41496927675789, 5.9571674821970735], [80.41607914915097, 5.958051269473056], [80.41741510666118, 5.957578546046368], [80.41821668116731, 5.95679752473271], [80.41959374506244, 5.956694758770386], [80.42006646848913, 5.9583801205524916], [80.41992259614187, 5.959674971677767], [80.4196759578323, 5.960743737685932], [80.41984038337202, 5.961997482426279], [80.41842221309196, 5.961689184539308], [80.41655187257767, 5.962141354773531], [80.4158941704188, 5.962901822894725], [80.41605859595852, 5.964032248480284], [80.41712736196668, 5.963765056978243], [80.41813446839745, 5.963456759091272], [80.4189771492885, 5.964196674020002], [80.41944987271519, 5.9645049719069725], [80.42047753233842, 5.964073354865214], [80.4211352344973, 5.964628291061762], [80.42203957496575, 5.9654915251452785], [80.4224711920075, 5.9666425039233015], [80.42265617073969, 5.967649610354072], [80.42243008562258, 5.969355525328642], [80.4211352344973, 5.969951567910119], [80.42010757487407, 5.970609270068989], [80.41979927698709, 5.972438504198347], [80.42012812806654, 5.973034546779824], [80.42261506435476, 5.974226631942777], [80.4228822558568, 5.975624249030377], [80.42230676646778, 5.976364163959106], [80.42018978764392, 5.976240844804318], [80.42035421318364, 5.9771246320803], [80.42144353238427, 5.977659015084382], [80.42183404304109, 5.978152291703534], [80.42144353238426, 5.979632121560993], [80.42160795792398, 5.981379142920493], [80.42265617073969, 5.981276376958169], [80.42292336224172, 5.979734887523317], [80.4228205962794, 5.9786250151302225], [80.42368383036292, 5.9786250151302225], [80.42436208571425, 5.977412376774805], [80.42516366022038, 5.9767135682310055], [80.42643795815319, 5.977905653393958], [80.42598578791896, 5.979817100293175], [80.42666404327029, 5.980598121606834], [80.42767114970107, 5.980495355644511], [80.42888378805648, 5.980598121606834], [80.42808221355037, 5.981749100384857], [80.42769170289353, 5.9825712280834455], [80.42734229862164, 5.982632887660839], [80.42582136237924, 5.982530121698516], [80.42543085172241, 5.983763313246397], [80.42652017092306, 5.984236036673085], [80.42664349007784, 5.985181483526461], [80.4260268943039, 5.985592547375756], [80.4253280857601, 5.98631190911202], [80.42569804322447, 5.987113483618144], [80.42629408580595, 5.9872162495804675], [80.42828774547502, 5.986969611270891], [80.4288221284791, 5.986106377187373], [80.42890434124897, 5.985160930333997], [80.42943872425305, 5.986209143149697], [80.42960314979275, 5.986928504885961], [80.43013753279685, 5.98670241976885], [80.4305691498386, 5.985921398455191], [80.4312679583824, 5.986126930379838], [80.43178178819402, 5.98635301549695], [80.43217229885084, 5.9867229729613145], [80.43270668185492, 5.987524547467438], [80.4331382988967, 5.988346675166026], [80.43369323509323, 5.988202802818773], [80.4344125968295, 5.986990164463355], [80.4340631925576, 5.9854075686435735], [80.43523472452809, 5.985140377141533], [80.43572800114724, 5.984359355827873], [80.4365090224609, 5.984729313292238], [80.43675566077047, 5.9849142920244205], [80.43788608635602, 5.983927738786115], [80.4396947672929, 5.983537228129285], [80.44076353330107, 5.983372802589568], [80.44158566099966, 5.983043951510133], [80.44230502273592, 5.982858972777951], [80.44477140583169, 5.982571228083445], [80.44616902291929, 5.98255067489098], [80.4470322570028, 5.982406802543727], [80.44803936343358, 5.982077951464292], [80.45003302310266, 5.981769653577322], [80.4513484274204, 5.980618674799299], [80.45151285296011, 5.979385483251416], [80.45091681037864, 5.978686674707617], [80.45315710835729, 5.9781317385110695], [80.45406144882574, 5.977350717197411], [80.45276659770046, 5.975850334147488], [80.45426698075039, 5.975768121377629], [80.45587012976263, 5.9758914405324175], [80.45564404464552, 5.976919100155652], [80.45500689567912, 5.97774122785424], [80.45397923605587, 5.979632121560993], [80.45375315093877, 5.980310376912328], [80.45552072549073, 5.978460589590505], [80.45642506595918, 5.975665355415305], [80.45562349145305, 5.9742471851352414], [80.45342429985934, 5.974185525557847], [80.45118400188068, 5.974945993679041], [80.45048519333687, 5.975850334147488], [80.45019744864237, 5.977021866117976], [80.4488409379397, 5.978337270435717], [80.44789549108633, 5.978357823628182], [80.44660063996105, 5.9786250151302225], [80.44602515057204, 5.978974419402123], [80.44522357606591, 5.979817100293175], [80.44448366113718, 5.980063738602752], [80.44294217170233, 5.979940419447964], [80.44022915029699, 5.980269270527399], [80.43885208640185, 5.980515908836976], [80.43729004377454, 5.9806186747993], [80.4397564268703, 5.97952935559867], [80.44072242691614, 5.978748334285012], [80.4419145120791, 5.978727781092547], [80.4436615334386, 5.977905653393959], [80.44425757602008, 5.977247951235088], [80.44532634202824, 5.977104078887836], [80.44553187395289, 5.977638461891917], [80.44571685268507, 5.978563355552829], [80.44727889531238, 5.978337270435717], [80.44822434216576, 5.977885100201494], [80.44898481028696, 5.978028972548747], [80.45009468268005, 5.97681633419333], [80.45067017206905, 5.975727014992701], [80.45124566145807, 5.974966546871507], [80.4523349806587, 5.974740461754395], [80.45325987431961, 5.974493823444819], [80.45371204455384, 5.973979993633201], [80.45182115084708, 5.972829014855178], [80.45145119338271, 5.972459057390814], [80.45180059765461, 5.971472504152508], [80.45293102324018, 5.970033780679978], [80.45482191694693, 5.969519950868361], [80.4561167680722, 5.96995156791012], [80.45708276811806, 5.9691705465964615], [80.45745272558241, 5.967259099697244], [80.45755549154475, 5.9654915251452785], [80.45924085332686, 5.964628291061761], [80.45967247036862, 5.96331288674402], [80.45702110854067, 5.962161907965997], [80.45523298079624, 5.962449652660503], [80.45399978924836, 5.961730290924238], [80.45521242760378, 5.959921609987345], [80.45488357652434, 5.959078929096291], [80.45346540624426, 5.959058375903827], [80.45319821474222, 5.962778503739939], [80.45036187418208, 5.965820376224715], [80.44690893784801, 5.968697823169773], [80.44205838442633, 5.970506504106667], [80.4385232353224, 5.9715752701148315], [80.43338493720624, 5.971493057344973], [80.42869880932429, 5.970917567955961], [80.42586246876415, 5.969355525328644], [80.42541029852993, 5.9672590996972446], [80.42290280904923, 5.965203780450774], [80.42171072388629, 5.962161907965998], [80.42203957496574, 5.958750078016858], [80.41998425571926, 5.9553793544526465], [80.41784672370294, 5.954639439523918], [80.4164696598078, 5.955944567245427], [80.41632578746055, 5.9570852694272185], [80.41530840443355, 5.956982503464895], [80.41441434056134, 5.95696195027243], [80.41374636180623, 5.9574141205066535], [80.4128111915491, 5.957938226914504], [80.412276808545, 5.95870897163193], [80.41225625535255, 5.95916114186615]]]}, "properties": {"district": "matara", "depth_threshold_m": 0.5}}, {"type": "Feature", "geometry": {"type": "Polygon", "coordinates": [[[80.45354761901412, 5.959006992922664], [80.45342429985934, 5.957773801374782], [80.4517594912697, 5.956581716211829], [80.45196502319435, 5.955739035320777], [80.45301323601004, 5.954608609735218], [80.45410255521067, 5.95448529058043], [80.45607566168728, 5.9536426096893775], [80.45730885323516, 5.953950907576347], [80.45813098093376, 5.954875801237259], [80.45837761924334, 5.9534165245722654], [80.45712387450298, 5.951463971288119], [80.45788434262418, 5.950456864857348], [80.46104953426374, 5.949984141430661], [80.46174834280754, 5.949079800962213], [80.46324872585747, 5.948997588192355], [80.46431749186563, 5.950148566970378], [80.46479021529231, 5.9508473755141775], [80.46518072594914, 5.952183333024384], [80.46647557707442, 5.951916141522342], [80.46657834303674, 5.950621290397066], [80.4653245982964, 5.949614183966296], [80.46583842810801, 5.948689290305384], [80.4673593643504, 5.949552524388903], [80.4688186410154, 5.949346992464256], [80.47068898152969, 5.948586524343061], [80.47151110922827, 5.947127247678067], [80.47042179002764, 5.946428439134268], [80.46871587505308, 5.946551758289056], [80.46703051327097, 5.945935162515115], [80.46616727918746, 5.946387332749339], [80.46664000261414, 5.944455332657657], [80.46606451322513, 5.942420566603651], [80.46682498134632, 5.941577885712599], [80.46933247082701, 5.940981843131122], [80.4717371943454, 5.940262481394858], [80.47307315185559, 5.94013916224007], [80.4747585136377, 5.94114626867084], [80.47666996053691, 5.941557332520134], [80.47790315208479, 5.940920183553728], [80.47847864147381, 5.941701204867386], [80.47919800321007, 5.9418245240221745], [80.47940353513472, 5.940262481394858], [80.47973238621415, 5.938905970692187], [80.48069838626, 5.938864864307258], [80.48108889691683, 5.9400775026626755], [80.48197268419281, 5.941064055900981], [80.48201379057774, 5.942831630452945], [80.48219876930992, 5.94355099218921], [80.48090391818464, 5.944167587963151], [80.47985570536895, 5.943057715570057], [80.47858140743612, 5.942934396415269], [80.47763596058276, 5.944044268808363], [80.47597115199311, 5.944825290122021], [80.47496404556234, 5.945421332703498], [80.47512847110207, 5.9442292475405445], [80.47362808805214, 5.945154141201456], [80.47303204547066, 5.946551758289056], [80.47364864124461, 5.948154907301302], [80.47611502434037, 5.94901814138482], [80.47710157757868, 5.94901814138482], [80.47872527978339, 5.949326439271791], [80.47874583297586, 5.95072405635939], [80.47847864147381, 5.951977801099737], [80.47743042865812, 5.953354864994872], [80.47913634363269, 5.953683716074307], [80.48073949264494, 5.9532109926476195], [80.47987625856142, 5.950662396781996], [80.48121221607163, 5.950045801008055], [80.48184936503803, 5.949449758426579], [80.48230153527226, 5.948072694531444], [80.48314421616331, 5.947517758334897], [80.48468570559815, 5.948812609460173], [80.48519953540978, 5.949778609506014], [80.4860011099159, 5.950333545702561], [80.48723430146379, 5.950045801008055], [80.48754259935076, 5.949079800962214], [80.48739872700351, 5.948052141338979], [80.4880975355473, 5.946551758289056], [80.48801532277744, 5.94525690716378], [80.48970068455955, 5.9450513752391325], [80.49074889737525, 5.944188141155616], [80.48910464197807, 5.943592098574139], [80.4887346845137, 5.942831630452945], [80.49029672714103, 5.942256141063933], [80.49165323784369, 5.9423178006413275], [80.49290698258405, 5.943427673034422], [80.49377021666756, 5.943941502846039], [80.494982855023, 5.943263247494704], [80.49613383380101, 5.94184507721464], [80.49746979131122, 5.941064055900981], [80.49884685520635, 5.940529672896899], [80.50069664252818, 5.940426906934575], [80.50221757877055, 5.93921426857916], [80.50597881299159, 5.937590566374448], [80.50809579181545, 5.938104396186065], [80.50955506848045, 5.939090949424371], [80.51064438768108, 5.940550226089365], [80.51064438768108, 5.941269587825629], [80.50978115359756, 5.941701204867388], [80.50838353650997, 5.9421122687166825], [80.50712979176961, 5.942420566603652], [80.50612268533884, 5.943160481532382], [80.50641043003336, 5.944373119887799], [80.50780804712095, 5.9445169922350525], [80.50879460035925, 5.944208694348082], [80.50984281317496, 5.943735970921393], [80.51097323876051, 5.94459920500491], [80.5124941750029, 5.9446197581973745], [80.51380957932064, 5.943427673034423], [80.51450838786444, 5.942626098528299], [80.51572102621986, 5.942482226181046], [80.51769413269646, 5.943119375147452], [80.51888621785942, 5.9428727368378755], [80.52003719663745, 5.942728864490622], [80.52190753715175, 5.943633204959069], [80.52353123935646, 5.943694864536464], [80.52536047348582, 5.944003162423434], [80.52708694165285, 5.944352566695334], [80.52893672897468, 5.945030822046669], [80.52992328221299, 5.9452774603562455], [80.53265685681079, 5.946777843406169], [80.53571928248803, 5.947332779602716], [80.53652085699416, 5.947846609414333], [80.53485604840449, 5.948524864765669], [80.5352054526764, 5.95049797124228], [80.53610979314485, 5.951731162790162], [80.53763072938723, 5.950456864857351], [80.53851451666321, 5.949901928660804], [80.53956272947892, 5.9503129925100975], [80.54135085722335, 5.949922481853268], [80.54176192107263, 5.949162013732074], [80.54219353811439, 5.948483758380739], [80.54387889989651, 5.9483090562447885], [80.54482434674988, 5.948288503052324], [80.5460369851053, 5.9483090562447885], [80.54724962346071, 5.948987311596124], [80.54685911280389, 5.950405481876188], [80.54739349580797, 5.951392035114494], [80.5484828150086, 5.951741439386393], [80.54969545336402, 5.950898758495341], [80.55113417683654, 5.949603907370064], [80.55082587894958, 5.94884343924887], [80.55269621946385, 5.9494600350228115], [80.55405273016652, 5.949603907370064], [80.5553475812918, 5.950241056336471], [80.5567451983794, 5.950323269106329], [80.55799894311974, 5.951207056382311], [80.55853332612382, 5.9523580351603345], [80.55725902819103, 5.95369399267054], [80.55639579410752, 5.955153269335534], [80.55641634729997, 5.956982503464892], [80.5577934111951, 5.957599099238833], [80.55851277293138, 5.956283694921092], [80.55964319851694, 5.957249694966934], [80.56028034748334, 5.956694758770387], [80.5613491134915, 5.956530333230669], [80.56231511353735, 5.957023609849822], [80.56225345395995, 5.9595310993305155], [80.56291115611883, 5.9588733971716445], [80.56321945400579, 5.957167482197074], [80.56287004973389, 5.955769865109475], [80.56221234757503, 5.955153269335534], [80.56206847522778, 5.954022843749975], [80.56237677311474, 5.953159609666457], [80.56287004973389, 5.95198807769597], [80.56395936893452, 5.952378588352799], [80.5642060072441, 5.954433907599269], [80.564555411516, 5.952481354315123], [80.56443209236122, 5.951494801076817], [80.56488426259544, 5.950816545725481], [80.56443209236122, 5.94950114140774], [80.56482260301804, 5.94787743920303], [80.56443209236122, 5.947425268968805], [80.56192460288051, 5.947589694508523], [80.56013647513608, 5.947548588123594], [80.55968430490185, 5.946623694462683], [80.5587799644334, 5.946377056153106], [80.55721792180609, 5.946931992349653], [80.55658077283968, 5.946726460425006], [80.55660132603215, 5.945863226341489], [80.55760843246291, 5.945102758220295], [80.55847166654644, 5.944239524136777], [80.55855387931629, 5.943129651743683], [80.55841000696904, 5.9426158219320655], [80.55917047509024, 5.941875907003336], [80.55970485809432, 5.941444289961578], [80.56013647513608, 5.941218204844466], [80.56235621992225, 5.940663268647919], [80.56449375193858, 5.940416630338343], [80.5659941349885, 5.940108332451373], [80.56693958184188, 5.939594502639754], [80.56862494362399, 5.939368417522643], [80.56963205005476, 5.939019013250743], [80.57028975221363, 5.938546289824055], [80.57263281615461, 5.937765268510396], [80.5737426885477, 5.9364293110001904], [80.57466758220862, 5.93607990672829], [80.57487311413325, 5.9365937365399075], [80.5740920928196, 5.938011906819972], [80.57351660343059, 5.939203991982925], [80.57423596516685, 5.940786587802707], [80.57487311413325, 5.938731268556237], [80.5754280503298, 5.937991353627508], [80.57598298652636, 5.93677871527209], [80.57701064614959, 5.936141566305684], [80.57791498661804, 5.935504417339279], [80.57900430581867, 5.936388204615261], [80.5796209015926, 5.935956587573502], [80.57994975267204, 5.93507280029752], [80.58046358248366, 5.9346822896406906], [80.58266277407739, 5.934250672598932], [80.58313549750409, 5.934600076870831], [80.58350545496845, 5.935566076916673], [80.58403983797253, 5.936552630154978], [80.5853346890978, 5.937025353581666], [80.58732834876687, 5.937333651468637], [80.587554433884, 5.937066459966595], [80.58554022102246, 5.935689396071461], [80.584635880554, 5.935257779029702], [80.58387541243282, 5.933942374711961], [80.5833615826212, 5.933551864055132], [80.58297107196437, 5.933058587435979], [80.58327936985134, 5.932853055511332], [80.58408094435745, 5.9331408002058375], [80.58480030609373, 5.933654630017455], [80.5853963486752, 5.934497310908508], [80.58621847637379, 5.935134459874914], [80.58833545519765, 5.935237225837237], [80.58886983820173, 5.933880715134567], [80.58796549773328, 5.9334696512852725], [80.58541690186766, 5.933407991707878], [80.58529358271288, 5.932894161896261], [80.5867939657628, 5.932359778892179], [80.58662954022309, 5.931434885231267], [80.58586907210189, 5.931085480959368], [80.58617736998886, 5.93022224687585], [80.58636234872104, 5.929543991524515], [80.584635880554, 5.929215140445079], [80.584635880554, 5.927570885047903], [80.58537579548273, 5.926214374345233], [80.5856840933697, 5.924940076412421], [80.58605405083406, 5.923932969981651], [80.58726668918948, 5.922679225241304], [80.58767775303878, 5.921836544350252], [80.58759554026891, 5.920541693224975], [80.58794494454081, 5.919678459141458], [80.58852043392983, 5.91951403360174], [80.59008247655714, 5.919370161254488], [80.59242554049813, 5.920397820877723], [80.5923227745358, 5.921857097542716], [80.59256941284538, 5.922597012471446], [80.59328877458164, 5.92331637420771], [80.59304213627206, 5.924159055098763], [80.59154175322215, 5.924611225332987], [80.59067851913862, 5.925268927491857], [80.59045243402151, 5.9258649700733335], [80.59067851913862, 5.927365353123256], [80.5918500511091, 5.927529778662974], [80.59291881711728, 5.9270159488513565], [80.59501524274867, 5.926933736081498], [80.59577571086987, 5.927673651010227], [80.59633064706642, 5.9271187148136795], [80.5961662215267, 5.9257005445336155], [80.5964539662212, 5.925125055144604], [80.59725554072733, 5.92510450195214], [80.59863260462247, 5.925125055144604], [80.59982468978542, 5.925823863688404], [80.60081124302373, 5.9260293956130505], [80.60089345579358, 5.926954289273962], [80.60253771119076, 5.927077608428751], [80.60325707292702, 5.926584331809598], [80.60486022193926, 5.926995395658892], [80.60568234963786, 5.926851523311639], [80.60498354109406, 5.925515565801433], [80.60296932823252, 5.925351140261715], [80.60202388137914, 5.925577225378827], [80.60116064729563, 5.924631778525451], [80.59955749828337, 5.924302927446016], [80.59822154077317, 5.924200161483692], [80.59739941307458, 5.923953523174116], [80.595118008711, 5.924919523219957], [80.59376149800833, 5.925083948759674], [80.59419311505009, 5.923624672094681], [80.59376149800833, 5.922514799701587], [80.59443975335967, 5.921302161346169], [80.59415200866516, 5.920315608107864], [80.59351485969874, 5.919431820831881], [80.59164451918446, 5.918589139940829], [80.59024690209687, 5.918178076091534], [80.58921924247362, 5.918445267593576], [80.58831490200518, 5.918486373978506], [80.58716392322715, 5.91780811862717], [80.58595128487174, 5.918342501631252], [80.58391651881773, 5.919390714446952], [80.58325881665886, 5.919102969752446], [80.58284775280957, 5.920397820877723], [80.5841631571273, 5.921466586885887], [80.5845742209766, 5.92265867204884], [80.58418371031978, 5.924857863642561], [80.58274498684725, 5.926625438194526], [80.5826011145, 5.928619097863601], [80.5818406463788, 5.930263353260777], [80.57951813563031, 5.932400885277107], [80.57816162492765, 5.933346332130483], [80.57479090136343, 5.935072800297518], [80.57337273108337, 5.935463310954347], [80.57082413521772, 5.937251438698778], [80.56788502869527, 5.938546289824053], [80.56515145409746, 5.938977906865812], [80.56247953907705, 5.93918343879046], [80.5594787729772, 5.940005566489048], [80.55699183668898, 5.940786587802706], [80.55501873021237, 5.941444289961577], [80.55123694279885, 5.9422664176601625], [80.54981877251879, 5.941341523999251], [80.54944881505442, 5.940642715455451], [80.54815396392914, 5.9416087155012915], [80.54572868721831, 5.942492502777274], [80.54422830416839, 5.942225311275233], [80.54258404877122, 5.942328077237557], [80.54050817633228, 5.941505949538969], [80.53902834647482, 5.941177098459533], [80.53736353788516, 5.939491736677429], [80.53436277178531, 5.938587396208982], [80.53370506962645, 5.937148672736453], [80.53160864399504, 5.937025353581665], [80.53021102690745, 5.938546289824052], [80.52829958000824, 5.93634709823033], [80.5257509841426, 5.935936034381036], [80.52373677128107, 5.935442757761883], [80.5198727710977, 5.935011140720123], [80.5164403879561, 5.935689396071458], [80.51417953678498, 5.935977140765964], [80.50581438745184, 5.936943140811806], [80.50423179163205, 5.9370048003892], [80.50162153618905, 5.938299651514475], [80.49911404670836, 5.938957353673345], [80.49746979131118, 5.938566843016516], [80.49533225929484, 5.939162885597993], [80.49214651446282, 5.940108332451369], [80.49107774845466, 5.93971782179454], [80.48737817381098, 5.937724162125466], [80.48380191832211, 5.936285438652937], [80.47960906705933, 5.936614289732372], [80.47660830095947, 5.937025353581666], [80.47479962002258, 5.93743641743096], [80.47204549223231, 5.937559736585748], [80.47031902406528, 5.93813522597476], [80.46851034312839, 5.938628502593913], [80.46666055580656, 5.93953284306236], [80.46392698120876, 5.9415676091163645], [80.46232383219652, 5.942266417660164], [80.46098787468631, 5.942369183622488], [80.45893255543984, 5.943664034747764], [80.45741161919746, 5.943890119864876], [80.45566459783795, 5.944013439019664], [80.45500689567908, 5.943520162400511], [80.45420532117296, 5.941115438882141], [80.45239664023607, 5.941197651652], [80.4529104700477, 5.942286970852629], [80.45399978924833, 5.942328077237558], [80.45422587436543, 5.944116204981987], [80.4532598743196, 5.945205524182617], [80.45194447000185, 5.945678247609305], [80.45089625718616, 5.946479822115428], [80.45023855502728, 5.946829226387328], [80.44896425709447, 5.94705531150444], [80.44703225700279, 5.947322503006481], [80.44670340592336, 5.946623694462681], [80.44705281019526, 5.945801566764093], [80.44832710812807, 5.944239524136775], [80.45009468268003, 5.944239524136775], [80.45083459760876, 5.943890119864876], [80.45167727849982, 5.94325297089847], [80.452437746621, 5.942574715547135], [80.4534859594367, 5.942225311275235], [80.4528488104703, 5.941197651652], [80.4518005976546, 5.941711481463617], [80.44995081033278, 5.9428830134341055], [80.44764885277674, 5.943869566672411], [80.44623068249666, 5.945719353994234], [80.4457990654549, 5.946068758266134], [80.444874171794, 5.946192077420922], [80.44409315048034, 5.946520928500357], [80.44370263982351, 5.947343056198945], [80.4444014483673, 5.94771301366331], [80.44612791653434, 5.9482473966673926], [80.44832710812807, 5.948637907324222], [80.44879983155475, 5.948987311596121], [80.44978638479306, 5.949809439294709], [80.45027966141221, 5.950035524411821], [80.45085515080122, 5.950179396759074], [80.45030021460468, 5.949192843520769], [80.44937532094376, 5.948494034976969], [80.45079349122383, 5.94872012009408], [80.45173893807721, 5.94941892863788], [80.4521500019265, 5.950138290374145], [80.4525610657758, 5.95357067351575], [80.45159506572995, 5.9547010991013085], [80.45083459760876, 5.9558520778793325], [80.45073183164644, 5.95698250346489], [80.4524994061984, 5.958380120552491], [80.45354761901412, 5.959006992922664]]]}, "properties": {"district": "matara", "depth_threshold_m": 0.5}}, {"type": "Feature", "geometry": {"type": "Polygon", "coordinates": [[[80.60529183898103, 5.92715982119861], [80.60619617944948, 5.9283930127464926], [80.6082309455035, 5.928927395750574], [80.61016294559518, 5.929050714905363], [80.61199217972452, 5.929872842603951], [80.61295817977037, 5.931064927766903], [80.61250600953615, 5.932174800159998], [80.61295817977037, 5.932914715088726], [80.61400639258608, 5.932996927858586], [80.61526013732642, 5.932154246967532], [80.61593839267775, 5.93135267246141], [80.61756209488246, 5.931681523540845], [80.61885694600774, 5.932729736356545], [80.61924745666457, 5.93336688532295], [80.61856920131324, 5.933983481096892], [80.61727435018796, 5.934373991753721], [80.61667830760648, 5.934641183255762], [80.61583562671542, 5.935586630109138], [80.6158561799079, 5.937662502548073], [80.61692494591605, 5.9388956940959545], [80.61778817999958, 5.939594502639755], [80.61965852051387, 5.939820587756866], [80.62093281844669, 5.940416630338343], [80.621035584409, 5.942101992120448], [80.61982294605359, 5.942533609162207], [80.61828145661873, 5.942800800664249], [80.61770596722972, 5.943211864513542], [80.61863086089063, 5.944897226295648], [80.61887749920021, 5.945986545496277], [80.61873362685296, 5.947116971081837], [80.6176032012674, 5.948124077512607], [80.61663720122156, 5.948802332863942], [80.6152190309415, 5.949727226524854], [80.61447911601277, 5.950898758495342], [80.61443800962783, 5.952111396850759], [80.61639056291199, 5.952234716005547], [80.61713047784072, 5.9513303755371005], [80.61813758427148, 5.951165949997383], [80.61863086089063, 5.951946971311042], [80.61914469070226, 5.952440247930194], [80.62023400990289, 5.951885311733648], [80.62072728652204, 5.951186503189848], [80.62132332910352, 5.95207029046583], [80.62206324403225, 5.951042630842594], [80.62235098872675, 5.950035524411824], [80.62366639304449, 5.949501141407742], [80.62514622290195, 5.950611013800836], [80.62674937191419, 5.950302715913866], [80.62720154214841, 5.949953311641965], [80.62818809538672, 5.951186503189846], [80.62935962735722, 5.950960418072734], [80.63020230824827, 5.950035524411822], [80.6315793721434, 5.949007864788587], [80.63256592538171, 5.948905098826264], [80.63388132969945, 5.9493983754454165], [80.63449792547338, 5.948884545633799], [80.63698486176162, 5.949275056290628], [80.63817694692457, 5.949377822252952], [80.63875243631358, 5.95015884356661], [80.63733426603352, 5.950426035068652], [80.63665601068219, 5.950364375491258], [80.63554613828909, 5.951145396804916], [80.63550503190416, 5.95159756703914], [80.63589554256099, 5.952173056428151], [80.63634771279521, 5.953591226708216], [80.63601886171578, 5.954043396942439], [80.63538171274936, 5.95431058844448], [80.63449792547338, 5.955297141682786], [80.63462124462818, 5.956879737502569], [80.63591609575346, 5.957311354544328], [80.63677932983697, 5.956345354498486], [80.63766311711295, 5.955112162950605], [80.63842358523415, 5.954413354406805], [80.63854690438893, 5.953118503281528], [80.63965677678203, 5.952645779854841], [80.6417120960285, 5.953097950089064], [80.64208205349287, 5.953776205440399], [80.64128047898674, 5.955009396988281], [80.64115715983195, 5.955893184264263], [80.64204094710793, 5.955687652339616], [80.6430480535387, 5.955769865109475], [80.64341801100306, 5.956263141728628], [80.64224647903258, 5.957763524778551], [80.64202039391547, 5.958791184401786], [80.64218481945518, 5.9596338652928385], [80.64341801100306, 5.958914503556574], [80.64426069189412, 5.958174588627845], [80.64528835151735, 5.958339014167563], [80.64518558555505, 5.959428333368192], [80.64547333024956, 5.960394333414032], [80.64691205372209, 5.961072588765368], [80.64781639419053, 5.960743737685933], [80.64810413888505, 5.9598599504099505], [80.6475492026885, 5.95881173759425], [80.64580218132899, 5.957208588582004], [80.64491839405301, 5.956057609803981], [80.64477452170576, 5.955235482105393], [80.64514447917013, 5.954269482059551], [80.64604881963857, 5.953467907553429], [80.64724090480152, 5.953426801168499], [80.64839188357955, 5.955297141682787], [80.64884405381376, 5.955852077879333], [80.65024167090137, 5.955893184264263], [80.65089937306024, 5.955995950226587], [80.65131043690953, 5.9573935673141865], [80.6517420539513, 5.958297907782633], [80.65223533057045, 5.9583801205524916], [80.65311911784643, 5.958092375857986], [80.6540645646998, 5.957311354544327], [80.6550511179381, 5.956694758770386], [80.65729141591675, 5.956694758770386], [80.65885345854407, 5.956633099192992], [80.66014830966934, 5.957085269427215], [80.66080601182821, 5.957845737548409], [80.66259413957265, 5.957845737548409], [80.66333405450138, 5.957784077971015], [80.66487554393622, 5.958215695012774], [80.66878065050452, 5.958832290786715], [80.67040435270923, 5.959017269518897], [80.67239801237831, 5.959325567405868], [80.67130869317768, 5.960579312146215], [80.66960277820311, 5.961360333459873], [80.66904784200656, 5.962018035618743], [80.66919171435381, 5.9631895675892315], [80.67009605482227, 5.963497865476202], [80.6710620548681, 5.963991142095355], [80.67272686345774, 5.964361099559719], [80.67404226777548, 5.964546078291901], [80.6752549061309, 5.96397058890289], [80.67568652317266, 5.963723950593313], [80.67611814021441, 5.962860716509796], [80.67572762955756, 5.96191526965642], [80.67412448054532, 5.961175354727691], [80.67406282096792, 5.960086035527062], [80.674597203972, 5.959613312100373], [80.6753576720932, 5.958544546092209], [80.67854341692522, 5.958606205669603], [80.67774184241911, 5.959736631255161], [80.67724856579996, 5.960846503648256], [80.67624145936918, 5.961648078154379], [80.67597426786713, 5.962429099468038], [80.6785023105403, 5.961750844116702], [80.67930388504642, 5.960743737685932], [80.67987937443543, 5.96090816322565], [80.67998214039775, 5.962429099468038], [80.68103035321346, 5.962244120735855], [80.68205801283669, 5.961750844116702], [80.68259239584077, 5.961545312192055], [80.68421609804548, 5.961257567497549], [80.68549039597829, 5.9618741632714904], [80.68561371513309, 5.962449652660502], [80.68509988532146, 5.962860716509796], [80.68450384273999, 5.963127908011837], [80.68421609804548, 5.963929482517961], [80.68452439593246, 5.9648338229864075], [80.68427775762288, 5.965573737915137], [80.68341452353935, 5.966601397538372], [80.68380503419618, 5.966930248617807], [80.68423665123795, 5.9666425039233015], [80.68524375766873, 5.966868589040414], [80.68662082156386, 5.9672385465047775], [80.6878745663042, 5.96746463162189], [80.68894333231236, 5.96746463162189], [80.6903203962075, 5.966950801810272], [80.69093699198145, 5.966436971998655], [80.6914302686006, 5.9663136528438665], [80.69161524733278, 5.967875695471184], [80.69083422601912, 5.968697823169772], [80.68900499188976, 5.968595057207448], [80.68842950250075, 5.968410078475266], [80.68783345991928, 5.967670163546536], [80.68756626841723, 5.967259099697243], [80.68676469391112, 5.967752376316396], [80.68655916198647, 5.968738929554701], [80.68596311940499, 5.970999780725818], [80.68620975771456, 5.971081993495677], [80.68861448123293, 5.970753142416242], [80.68937494935413, 5.971020333918283], [80.69151248137045, 5.971390291382647], [80.69182077925743, 5.971308078612789], [80.6923551622615, 5.9709586743408885], [80.69260180057108, 5.969725482793007], [80.69315673676763, 5.969704929600542], [80.69399941765869, 5.970054333872442], [80.69484209854974, 5.97087646157103], [80.69523260920657, 5.970444844529271], [80.69552035390107, 5.969704929600542], [80.6956847794408, 5.968965014671813], [80.69646580075445, 5.968410078475267], [80.69815116253656, 5.969314418943713], [80.69839780084614, 5.969828248755331], [80.69915826896732, 5.970115993449837], [80.70028869455288, 5.970609270068989], [80.70102860948161, 5.970095440257372], [80.70053533286246, 5.968040121010902], [80.69985707751113, 5.9673002060821725], [80.69893218385022, 5.9686156103999135], [80.69728792845304, 5.967711269931466], [80.69732903483796, 5.966848035847949], [80.6984183540386, 5.965738163454855], [80.69880886469542, 5.965265440028167], [80.69956933281662, 5.964957142141197], [80.70018592859056, 5.964299439982326], [80.70035035413028, 5.96296348247212], [80.70065865201724, 5.961504205807127], [80.70102860948161, 5.960414886606497], [80.70094639671174, 5.9602915674517085], [80.69882941788788, 5.960764290878399], [80.69833614126873, 5.96277850373994], [80.69545869432366, 5.9629840356645865], [80.69175911968001, 5.96269629097008], [80.69023818343763, 5.961750844116704], [80.68653860879398, 5.959942163179811], [80.68666192794878, 5.958051269473058], [80.6857164810954, 5.9576813120086936], [80.68325009799963, 5.958873397171646], [80.68201690645175, 5.958750078016858], [80.67992048082036, 5.958010163088129], [80.67786516157389, 5.957516886468976], [80.67457665077953, 5.957516886468976], [80.6711648208304, 5.958010163088129], [80.66841069304013, 5.958133482242917], [80.66594430994436, 5.956776971540246], [80.66520439501564, 5.956448120460811], [80.66138150121722, 5.955461567222506], [80.65755860741878, 5.9550505033732115], [80.65591435202161, 5.955091609758141], [80.6535301816957, 5.9550505033732115], [80.65110490498486, 5.954680545908847], [80.64966618151233, 5.9542283756746235], [80.64559664940431, 5.951905864926111], [80.6443223514715, 5.951700333001464], [80.64259588330447, 5.950323269106329], [80.64140379814151, 5.9482062902824655], [80.64154767048876, 5.946911439157189], [80.64199984072299, 5.945842673149024], [80.64218481945517, 5.944999992257972], [80.641116053447, 5.944547822023749], [80.64086941513743, 5.945452162492195], [80.64052001086553, 5.946048205073672], [80.63982120232173, 5.94647982211543], [80.63924571293272, 5.946130417843531], [80.63920460654779, 5.945616588031913], [80.63889630866082, 5.944198417751848], [80.64015005340117, 5.944527268831284], [80.64091052152236, 5.944794460333325], [80.64109550025455, 5.944547822023749], [80.64039669171075, 5.943849013479949], [80.63959511720462, 5.943643481555302], [80.63871132992864, 5.943746247517625], [80.63827971288688, 5.944671141178537], [80.6377453298828, 5.9450822050278305], [80.63753979795815, 5.944547822023749], [80.6366354574897, 5.944897226295649], [80.63624494683287, 5.94621263061339], [80.63645047875752, 5.947014205119513], [80.63540226594182, 5.94721973704416], [80.63478567016789, 5.946377056153107], [80.63437460631859, 5.945698800801773], [80.63398409566176, 5.945184970990154], [80.63316196796318, 5.944383396484032], [80.63277145730635, 5.944732800755931], [80.63238094664952, 5.9454727156846605], [80.63217541472487, 5.946315396575713], [80.6329153296536, 5.946109864651066], [80.63334694669535, 5.945616588031913], [80.63402520204669, 5.945369949722337], [80.63371690415973, 5.946500375307895], [80.63355247862, 5.946829226387331], [80.63322362754057, 5.946335949768178], [80.63289477646113, 5.946007098688742], [80.63217541472487, 5.945904332726419], [80.63203154237762, 5.945739907186701], [80.63108609552424, 5.945452162492196], [80.63018175505579, 5.945698800801773], [80.63063392529001, 5.946438715730501], [80.63164103172079, 5.946952545542119], [80.63157937214339, 5.94761024770099], [80.63065447848248, 5.947939098780425], [80.62995566993868, 5.947630800893454], [80.62981179759143, 5.947014205119513], [80.62979124439896, 5.946397609345572], [80.62995566993868, 5.945760460379167], [80.63032562740304, 5.945596034839449], [80.63081890402219, 5.945267183760014], [80.63001732951608, 5.945082205027831], [80.62915409543255, 5.945616588031913], [80.62896911670038, 5.946685354040078], [80.62839362731137, 5.9465620348852894], [80.62777703153742, 5.9462948433832485], [80.6255778399437, 5.946356502960643], [80.62426243562595, 5.94586322634149], [80.62337864834997, 5.945596034839449], [80.62241264830413, 5.945041098642902], [80.62156996741308, 5.944239524136779], [80.6213849886809, 5.942862460241644], [80.62206324403223, 5.942204758082773], [80.62210435041716, 5.941320970806791], [80.62156996741307, 5.939532843062361], [80.62136443548842, 5.938525736631591], [80.62097392483159, 5.938381864284337], [80.61965852051385, 5.9384640770541965], [80.61961741412892, 5.938607949401449], [80.61912413750977, 5.938484630246661], [80.61805537150161, 5.937847481280255], [80.61704826507084, 5.936347098230332], [80.61799371192421, 5.935257779029704], [80.61902137154745, 5.934887821565339], [80.61976128647618, 5.934764502410552], [80.6202134567104, 5.933634076824993], [80.62029566948026, 5.932688629971617], [80.61972018009125, 5.9318459490805635], [80.6185280949283, 5.931414332038805], [80.61772652042217, 5.931003268189511], [80.61690439272358, 5.930407225608034], [80.6157328607531, 5.929811183026558], [80.61499294582437, 5.929955055373811], [80.61460243516754, 5.930448331992964], [80.61402694577852, 5.930653863917611], [80.61400639258605, 5.929523438332052], [80.61209494568683, 5.928947948943041], [80.61117005202593, 5.928434119131423], [80.60755269015213, 5.927385906315724], [80.60572345602277, 5.926728204156853], [80.60529183898103, 5.92715982119861]]]}, "properties": {"district": "matara", "depth_threshold_m": 0.5}}, {"type": "Feature", "geometry": {"type": "Polygon", "coordinates": [[[80.69930214131455, 5.960661524916072], [80.70076141797954, 5.960209354681848], [80.70086418394186, 5.959757184447625], [80.70254954572397, 5.9592433546360075], [80.70538588628409, 5.959346120598331], [80.70690682252648, 5.959305014213402], [80.70705069487373, 5.96047654618389], [80.70629022675254, 5.961380886652337], [80.70569418417107, 5.961730290924237], [80.70515980116699, 5.963004588857048], [80.70596137567311, 5.963518418668666], [80.70680405656415, 5.963641737823454], [80.70721512041345, 5.964032248480283], [80.7073589927607, 5.964689950639154], [80.70750286510795, 5.965779269839783], [80.70797558853465, 5.966005354956894], [80.70857163111613, 5.9660875677267535], [80.70935265242979, 5.965059908103518], [80.70883882261816, 5.964052801672747], [80.70879771623324, 5.96284016331733], [80.70957873754689, 5.961524758999589], [80.70959929073936, 5.960908163225649], [80.70943486519964, 5.960209354681848], [80.71044197163042, 5.959757184447625], [80.71223009937484, 5.960455992991426], [80.71307278026588, 5.96051765256882], [80.713874354772, 5.960271014259243], [80.71496367397263, 5.960044929142131], [80.71590912082601, 5.960147695104455], [80.71627907829037, 5.960497099376354], [80.71788222730262, 5.960497099376354], [80.71849882307656, 5.961730290924237], [80.7176561421855, 5.962552418622825], [80.71697788683417, 5.9634567590912715], [80.7163818442527, 5.964319993174789], [80.71609409955819, 5.965183227258307], [80.71636129106024, 5.96703301458013], [80.7170806527965, 5.967875695471182], [80.71769724857045, 5.966848035847948], [80.71851937626904, 5.967485184814355], [80.71802609964989, 5.968307312512943], [80.71769724857045, 5.969088333826601], [80.71829329115192, 5.971390291382647], [80.71954703589228, 5.972047993541518], [80.72057469551551, 5.97192467438673], [80.72119129128944, 5.972109653118912], [80.72176678067846, 5.9726645893154595], [80.7226711211469, 5.973445610629118], [80.72306163180373, 5.973959440440735], [80.72283554668664, 5.975069312833829], [80.7218078870634, 5.975953100109811], [80.72080078063264, 5.976877993770723], [80.71985533377926, 5.976631355461146], [80.71884822734849, 5.976220291611852], [80.71860158903891, 5.977083525695369], [80.71948537631489, 5.978542802360363], [80.72055414232307, 5.979426589636345], [80.72133516363672, 5.978912759824728], [80.72199286579558, 5.978871653439798], [80.72240392964488, 5.978974419402122], [80.72252724879968, 5.980002079025357], [80.72219839772023, 5.98045424925958], [80.72244503602981, 5.9822423770040105], [80.72281499349417, 5.982797313200558], [80.72207507856544, 5.983968845171045], [80.72154069556136, 5.985058164371674], [80.72149958917643, 5.985263696296322], [80.72030750401348, 5.986537994229133], [80.71997865293405, 5.9871134836181445], [80.7196498018546, 5.9881000368564505], [80.71923873800532, 5.98844944112835], [80.71944426992995, 5.989312675211868], [80.72168456790861, 5.989477100751585], [80.72178733387094, 5.990586973144679], [80.72293831264896, 5.991244675303549], [80.72306163180374, 5.990525313567285], [80.72302052541882, 5.989168802864614], [80.723205504151, 5.987154590003074], [80.72378099354, 5.986188589957233], [80.72470588720093, 5.985551440990827], [80.72563078086183, 5.984852632447027], [80.72680231283232, 5.984934845216886], [80.72717227029669, 5.984030504748439], [80.72614461067344, 5.983413908974498], [80.72554856809198, 5.982489015313587], [80.72544580212966, 5.981625781230069], [80.72645290856042, 5.9819135259245755], [80.72729558945147, 5.982530121698516], [80.7280355043802, 5.983228930242316], [80.72877541930893, 5.985202036718928], [80.73004971724174, 5.984277143058016], [80.73074852578554, 5.984708760099775], [80.7313034619821, 5.984873185639492], [80.73183784498617, 5.98433880263541], [80.73202282371835, 5.984092164325833], [80.73339988761349, 5.983742760053933], [80.73434533446687, 5.98329058981971], [80.73463307916137, 5.984277143058016], [80.73463307916137, 5.984749866484703], [80.73302993014913, 5.9862913559195565], [80.73282439822448, 5.987031270848286], [80.73331767484362, 5.987175143195538], [80.73376984507784, 5.986250249534627], [80.73508524939558, 5.98635301549695], [80.73557852601473, 5.987277909157862], [80.73576350474691, 5.987236802772932], [80.73660618563797, 5.986332462304485], [80.73685282394754, 5.983701653669004], [80.73668839840782, 5.98263288766084], [80.73746941972148, 5.982262930196475], [80.73829154742008, 5.98259178127591], [80.73857929211458, 5.98329058981971], [80.73849707934471, 5.984852632447027], [80.73870261126936, 5.985880292070262], [80.73979193046998, 5.986517441036669], [80.74067571774597, 5.987503994274974], [80.74158005821441, 5.987832845354409], [80.74328597318897, 5.987832845354409], [80.74359427107595, 5.9877095261996205], [80.74363537746088, 5.986579100614063], [80.74128203692366, 5.986599653806528], [80.74062433476479, 5.985685036741849], [80.7395452921604, 5.984575164348755], [80.739041738945, 5.983598887706681], [80.73915478150357, 5.982427355736193], [80.73762356866494, 5.98067005778046], [80.73684254735127, 5.979570461983599], [80.73675005798519, 5.978604461937758], [80.73755163249132, 5.97830644064702], [80.73816822826525, 5.977936483182655], [80.73940141981313, 5.9779981427600495], [80.73965833471894, 5.977453483159735], [80.73867178148065, 5.976127802245762], [80.73941169640938, 5.975685908607772], [80.73949390917923, 5.974884334101648], [80.73867178148063, 5.973630589361301], [80.73819905805395, 5.971955504175428], [80.73792158995568, 5.97117448286177], [80.73717139843072, 5.971184759458001], [80.73634927073213, 5.9707531424162426], [80.735989589864, 5.970681206242617], [80.7352907813202, 5.971040887110749], [80.73504414301063, 5.971801355231943], [80.73643148350199, 5.971893844598034], [80.73705835587216, 5.972212419081236], [80.73728444098927, 5.972674865911692], [80.73730499418174, 5.973198972319542], [80.73743858993276, 5.973795014901019], [80.73832237720875, 5.974319121308868], [80.7387539942505, 5.974750738350627], [80.73862039849949, 5.975434132000079], [80.73850735594094, 5.976369302257223], [80.73863067509573, 5.977263366129437], [80.73871288786559, 5.977592217208873], [80.73796269634063, 5.977838855518449], [80.73731527077798, 5.9776333235938015], [80.73664729202288, 5.976636493759264], [80.73644176009824, 5.97583491925314], [80.73589710049792, 5.974971685169623], [80.73573267495821, 5.97395430214262], [80.73540382387877, 5.973111621251568], [80.73558366431284, 5.9719143977905], [80.73479236640294, 5.972058270137754], [80.73402162168553, 5.973363397859262], [80.73280898333012, 5.974298568116406], [80.73142164283874, 5.975593419241681], [80.73105168537438, 5.976220291611855], [80.73162717476339, 5.97720684485016], [80.73197657903529, 5.978686674707618], [80.73009596192477, 5.979467696021278], [80.7297260044604, 5.979673227945924], [80.72787621713859, 5.979755440715783], [80.72634500429996, 5.9794060364438835], [80.72386834460796, 5.977751504450475], [80.72309759989054, 5.976888270366958], [80.723118153083, 5.975665355415308], [80.72343672756621, 5.975007653256437], [80.72377585524187, 5.974442440463658], [80.72350866373984, 5.973178419127078], [80.72269681263748, 5.9720993765226815], [80.72201855728615, 5.97165748288469], [80.72172053599542, 5.970835355186102], [80.72097034447044, 5.970691482838849], [80.7199015784623, 5.969232206173855], [80.71948023801677, 5.968399801879035], [80.71927470609212, 5.967372142255799], [80.71913083374487, 5.9662108868815436], [80.7185039613747, 5.965244886835703], [80.71811345071787, 5.96453580169567], [80.718473131586, 5.962727120758777], [80.71900751459009, 5.9620283122149775], [80.71916166353357, 5.961298673882481], [80.71868894010689, 5.960147695104458], [80.71775376984974, 5.959418056771961], [80.71546208888992, 5.95910975888499], [80.71428028032321, 5.959356397194567], [80.71234828023152, 5.95959275890791], [80.71110481208741, 5.959171418462383], [80.71042655673608, 5.95871924822816], [80.70932696093922, 5.959089205692525], [80.7085562162218, 5.959880503602416], [80.70835068429714, 5.961216461112621], [80.7081143225838, 5.961904993060189], [80.7070044501907, 5.961586418576986], [80.70766215234957, 5.959017269518898], [80.70679891826605, 5.958462333322351], [80.70465110965348, 5.9585753758809075], [80.70288353510152, 5.958339014167564], [80.70136259885913, 5.958328737571331], [80.69976972644314, 5.9584417801298875], [80.69922506684281, 5.958678141843231], [80.69880372639729, 5.959489992945587], [80.69930214131455, 5.960661524916072]]]}, "properties": {"district": "matara", "depth_threshold_m": 0.5}}, {"type": "Feature", "geometry": {"type": "Polygon", "coordinates": [[[80.74791557979167, 5.9879767177016605], [80.74818277129371, 5.989189356057078], [80.74596302650752, 5.989333228404331], [80.74327055829464, 5.989127696479684], [80.7406808560441, 5.989538760328978], [80.73913936660924, 5.990011483755666], [80.7399203879229, 5.991491313613125], [80.74022868580987, 5.9930122498555125], [80.74121523904817, 5.993957696708889], [80.74162630289747, 5.995211441449236], [80.74051643050437, 5.996197994687541], [80.73835834529558, 5.9959102499930355], [80.73883106872228, 5.994779824407477], [80.73809115379355, 5.994142675441071], [80.73708404736277, 5.994183781826001], [80.73560421750531, 5.9944304201355765], [80.73488485576905, 5.994985356332124], [80.73252123863561, 5.994471526520504], [80.73147302581992, 5.994286547788322], [80.73305562163969, 5.993669952014382], [80.73334336633421, 5.992868377508258], [80.73385719614582, 5.992272334926782], [80.73359000464379, 5.991429654035729], [80.73243902586576, 5.991244675303546], [80.73149357901238, 5.990792505069323], [80.7308358768535, 5.990175909295382], [80.72945881295837, 5.98960041990637], [80.72910940868647, 5.989538760328976], [80.72812285544818, 5.990401994412494], [80.72888332356936, 5.989497653944047], [80.72814340864063, 5.989805951831017], [80.72762957882902, 5.990422547604958], [80.72707464263247, 5.990628079529606], [80.72625251493388, 5.9893332284043295], [80.72561536596747, 5.989785398638553], [80.72575923831472, 5.990854164646717], [80.7271157490174, 5.991861271077488], [80.72771179159888, 5.991511866805588], [80.72843115333514, 5.990443100797424], [80.72976711084534, 5.990237568872776], [80.73077421727612, 5.990854164646717], [80.73180187689935, 5.991409100843264], [80.73270621736779, 5.991676292345305], [80.73348723868146, 5.992190122156923], [80.73297340886984, 5.993197228587693], [80.73186353647675, 5.993690505206846], [80.73085643004598, 5.994019356286281], [80.73091808962337, 5.994718164830081], [80.73225404713358, 5.995437526566346], [80.73377498337597, 5.995478632951275], [80.7346793238444, 5.99545807975881], [80.73681685586074, 5.9951908882567695], [80.73731013247989, 5.995869143608105], [80.737536217597, 5.996650164921763], [80.73850221764285, 5.997348973465563], [80.7393448985339, 5.997533952197745], [80.7400437070777, 5.997184547925845], [80.74049587731191, 5.996670718114228], [80.74187294120705, 5.996732377691622], [80.7425511965584, 5.996917356423804], [80.74345553702683, 5.99689680323134], [80.74427766472543, 5.997718930929928], [80.74380494129873, 5.998808250130557], [80.74302391998508, 5.999013782055204], [80.74224289867142, 5.999856462946257], [80.74185238801459, 6.000945782146886], [80.74203736674677, 6.0019734417701205], [80.7434144306419, 6.002096760924909], [80.74487370730691, 6.001459611958503], [80.74586026054521, 6.001665143883151], [80.74567528181302, 6.003001101393356], [80.74575749458289, 6.004234292941238], [80.74657962228147, 6.004378165288491], [80.74785392021428, 6.003864335476873], [80.74834719683344, 6.003699909937156], [80.74900489899231, 6.003391612050185], [80.751512388473, 6.003186080125539], [80.75284834598321, 6.003144973740609], [80.75352660133454, 6.003001101393357], [80.75412264391602, 6.003288846087863], [80.75254004809624, 6.003658803552228], [80.75163570762778, 6.003967101439198], [80.75097800546892, 6.0043370589035625], [80.75128630335588, 6.0053236121418685], [80.75198511189969, 6.005426378104192], [80.75383489922152, 6.005118080217222], [80.75531472907898, 6.005179739794616], [80.75609575039263, 6.0047275695603926], [80.7564040482796, 6.003864335476875], [80.75558192058101, 6.003062760970751], [80.75517085673172, 6.00283667585364], [80.75566413335088, 6.002117314117375], [80.75708230363094, 6.002240633272163], [80.75769889940487, 6.0019323353851926], [80.75868545264318, 6.001624037498222], [80.76022694207803, 6.001233526841393], [80.76082298465951, 6.001192420456464], [80.7616451123581, 6.00178846303794], [80.76398817629907, 6.002178973694769], [80.76552966573392, 6.002487271581739], [80.7662490274702, 6.00310386735568], [80.76645455939483, 6.003371058857721], [80.76581741042843, 6.0052619525644735], [80.76692728282153, 6.006104633455527], [80.76783162328996, 6.006063527070597], [80.76879762333581, 6.005385271719262], [80.769558091457, 6.004542590828209], [80.77021579361588, 6.003473824820045], [80.77124345323911, 6.003987654631662], [80.77192170859044, 6.004398718480957], [80.77253830436439, 6.005529144066515], [80.77266162351917, 6.005899101530879], [80.77379204910473, 6.006084080263062], [80.77280549586642, 6.004152080171381], [80.7706063042727, 6.002240633272163], [80.77001026169123, 6.002548931159134], [80.76941421910975, 6.003802675899481], [80.76832489990912, 6.004152080171381], [80.76758498498039, 6.003638250359763], [80.76744111263314, 6.002548931159134], [80.76657787854963, 6.002363952426951], [80.76546800615652, 6.001480165150969], [80.76458421888054, 6.000904675761958], [80.76359766564225, 6.00104854810921], [80.76203562301494, 6.00039084595034], [80.76115183573896, 5.999650931021611], [80.7603708144253, 5.999877016138723], [80.75876766541305, 5.999753696983935], [80.75623962273988, 5.999692037406541], [80.75480089926737, 5.999918122523652], [80.75293055875308, 5.999383739519568], [80.75021753734774, 5.999034335247669], [80.74771004786705, 5.997369526658027], [80.74647685631915, 5.994122122248604], [80.74575749458288, 5.992375100889105], [80.74590136693013, 5.990196462487846], [80.74791557979167, 5.989908717793341], [80.74995034584568, 5.989682632676229], [80.7499914522306, 5.9885933134756], [80.74855272875807, 5.987668419814688], [80.74808514362951, 5.987709526199617], [80.74791557979167, 5.9879767177016605]]]}, "properties": {"district": "matara", "depth_threshold_m": 0.5}}]}