{"type": "FeatureCollection", "features": [{"type": "Feature", "geometry": {"type": "Point", "coordinates": [80.576851, 5.938166]}, "properties": {"id": "osm-000", "name": "University of Ruhuna", "type": "school", "source": "osm", "confidence": "unverified", "district": "matara"}}, {"type": "Feature", "geometry": {"type": "Point", "coordinates": [80.493666, 5.964142]}, "properties": {"id": "osm-001", "name": "Korea Sri Lanka Friendship Hospital Complex", "type": "hospital", "source": "osm", "confidence": "unverified", "district": "matara"}}, {"type": "Feature", "geometry": {"type": "Point", "coordinates": [80.467388, 5.951276]}, "properties": {"id": "osm-002", "name": "Mirissa Central College Complex", "type": "school", "source": "osm", "confidence": "unverified", "district": "matara"}}, {"type": "Feature", "geometry": {"type": "Point", "coordinates": [80.588569, 5.927232]}, "properties": {"id": "osm-003", "name": "Devinuwara Sri Vishnu Maha Devalaya", "type": "religious", "source": "osm", "confidence": "unverified", "district": "matara"}}, {"type": "Feature", "geometry": {"type": "Point", "coordinates": [80.485308, 5.966685]}, "properties": {"id": "osm-004", "name": "Sri Sunandarama Ancient Temple", "type": "religious", "source": "osm", "confidence": "unverified", "district": "matara"}}, {"type": "Feature", "geometry": {"type": "Point", "coordinates": [80.511991, 5.957987]}, "properties": {"id": "osm-005", "name": "Wewahamanduwa Wanigasekara Vidyalaya", "type": "school", "source": "osm", "confidence": "unverified", "district": "matara"}}, {"type": "Feature", "geometry": {"type": "Point", "coordinates": [80.45564, 5.997396]}, "properties": {"id": "osm-006", "name": "School (OSM)", "type": "school", "source": "osm", "confidence": "unverified", "district": "matara"}}, {"type": "Feature", "geometry": {"type": "Point", "coordinates": [80.419514, 5.971354]}, "properties": {"id": "osm-007", "name": "Agrabodhi Raja Maha Viharaya", "type": "religious", "source": "osm", "confidence": "unverified", "district": "matara"}}, {"type": "Feature", "geometry": {"type": "Point", "coordinates": [80.523553, 6.004943]}, "properties": {"id": "osm-008", "name": "Gangarama Purana Wiharaya", "type": "religious", "source": "osm", "confidence": "unverified", "district": "matara"}}, {"type": "Feature", "geometry": {"type": "Point", "coordinates": [80.454658, 5.956493]}, "properties": {"id": "osm-009", "name": "Religious (OSM)", "type": "religious", "source": "osm", "confidence": "unverified", "district": "matara"}}, {"type": "Feature", "geometry": {"type": "Point", "coordinates": [80.583813, 5.948283]}, "properties": {"id": "osm-010", "name": "Thalpawila Central College Ground", "type": "school", "source": "osm", "confidence": "unverified", "district": "matara"}}, {"type": "Feature", "geometry": {"type": "Point", "coordinates": [80.5728, 5.977302]}, "properties": {"id": "osm-011", "name": "Religious (OSM)", "type": "religious", "source": "osm", "confidence": "unverified", "district": "matara"}}, {"type": "Feature", "geometry": {"type": "Point", "coordinates": [80.537471, 5.954171]}, "properties": {"id": "osm-012", "name": "Sujatha Vidyalaya, Matara.", "type": "school", "source": "osm", "confidence": "unverified", "district": "matara"}}, {"type": "Feature", "geometry": {"type": "Point", "coordinates": [80.608211, 5.96483]}, "properties": {"id": "osm-013", "name": "Pantharamaya", "type": "religious", "source": "osm", "confidence": "unverified", "district": "matara"}}, {"type": "Feature", "geometry": {"type": "Point", "coordinates": [80.484651, 5.967333]}, "properties": {"id": "osm-014", "name": "Kotawila Primary School", "type": "school", "source": "osm", "confidence": "unverified", "district": "matara"}}, {"type": "Feature", "geometry": {"type": "Point", "coordinates": [80.518721, 6.008937]}, "properties": {"id": "osm-015", "name": "Sri Sumedha Vidyalaya Ground", "type": "school", "source": "osm", "confidence": "unverified", "district": "matara"}}, {"type": "Feature", "geometry": {"type": "Point", "coordinates": [80.408463, 5.965827]}, "properties": {"id": "osm-016", "name": "Religious (OSM)", "type": "religious", "source": "osm", "confidence": "unverified", "district": "matara"}}, {"type": "Feature", "geometry": {"type": "Point", "coordinates": [80.699046, 5.976872]}, "properties": {"id": "osm-017", "name": "Wewurukannala Raja Maha Viharaya", "type": "religious", "source": "osm", "confidence": "unverified", "district": "matara"}}, {"type": "Feature", "geometry": {"type": "Point", "coordinates": [80.592979, 5.964856]}, "properties": {"id": "osm-018", "name": "Vijayaba School", "type": "school", "source": "osm", "confidence": "unverified", "district": "matara"}}, {"type": "Feature", "geometry": {"type": "Point", "coordinates": [80.614503, 5.936734]}, "properties": {"id": "osm-019", "name": "Gandara Kanitu Viduhala", "type": "school", "source": "osm", "confidence": "unverified", "district": "matara"}}, {"type": "Feature", "geometry": {"type": "Point", "coordinates": [80.612109, 5.990464]}, "properties": {"id": "osm-020", "name": "Aparekka Aurvedic Hospital", "type": "hospital", "source": "osm", "confidence": "unverified", "district": "matara"}}, {"type": "Feature", "geometry": {"type": "Point", "coordinates": [80.562255, 6.00017]}, "properties": {"id": "osm-021", "name": "Midellawala Temple", "type": "religious", "source": "osm", "confidence": "unverified", "district": "matara"}}, {"type": "Feature", "geometry": {"type": "Point", "coordinates": [80.575502, 5.952877]}, "properties": {"id": "osm-022", "name": "Weherahena Viharaya", "type": "religious", "source": "osm", "confidence": "unverified", "district": "matara"}}, {"type": "Feature", "geometry": {"type": "Point", "coordinates": [80.515218, 5.945714]}, "properties": {"id": "osm-023", "name": "Asian Grammar School", "type": "school", "source": "osm", "confidence": "unverified", "district": "matara"}}, {"type": "Feature", "geometry": {"type": "Point", "coordinates": [80.518765, 5.95367]}, "properties": {"id": "osm-024", "name": "Awasaya", "type": "religious", "source": "osm", "confidence": "unverified", "district": "matara"}}, {"type": "Feature", "geometry": {"type": "Point", "coordinates": [80.519259, 5.953768]}, "properties": {"id": "osm-025", "name": "Darmashalawa", "type": "religious", "source": "osm", "confidence": "unverified", "district": "matara"}}, {"type": "Feature", "geometry": {"type": "Point", "coordinates": [80.518998, 5.954128]}, "properties": {"id": "osm-026", "name": "Budu Medura", "type": "religious", "source": "osm", "confidence": "unverified", "district": "matara"}}, {"type": "Feature", "geometry": {"type": "Point", "coordinates": [80.573236, 5.978604]}, "properties": {"id": "osm-027", "name": "Religious (OSM)", "type": "religious", "source": "osm", "confidence": "unverified", "district": "matara"}}, {"type": "Feature", "geometry": {"type": "Point", "coordinates": [80.61253, 5.943042]}, "properties": {"id": "osm-028", "name": "School (OSM)", "type": "school", "source": "osm", "confidence": "unverified", "district": "matara"}}, {"type": "Feature", "geometry": {"type": "Point", "coordinates": [80.60442, 5.960629]}, "properties": {"id": "osm-029", "name": "Chaithya", "type": "religious", "source": "osm", "confidence": "unverified", "district": "matara"}}]}